{"type":"FeatureCollection","features":[{"type":"Feature","properties":{"id":"temba","name":"Temba","labelPriority":"primary","selectionBasis":"census-main-place","subPlaceCount":1},"geometry":{"type":"Polygon","coordinates":[[[18.63182,-34.01515],[18.63161,-34.01345],[18.63789,-34.01293],[18.63809,-34.01462],[18.63505,-34.01487],[18.63538,-34.01576],[18.63409,-34.01618],[18.63365,-34.01498],[18.63182,-34.01515]]]}},{"type":"Feature","properties":{"id":"lakeside","name":"Lakeside","labelPriority":"secondary","selectionBasis":"census-main-place","subPlaceCount":1},"geometry":{"type":"Polygon","coordinates":[[[18.46314,-34.08101],[18.4624,-34.08733],[18.46253,-34.089],[18.46308,-34.09039],[18.46191,-34.09107],[18.46049,-34.09209],[18.45878,-34.09308],[18.45834,-34.09264],[18.45744,-34.09124],[18.45663,-34.09066],[18.45579,-34.09038],[18.45368,-34.09],[18.45094,-34.08864],[18.45007,-34.088],[18.44975,-34.08723],[18.45013,-34.08626],[18.45064,-34.0859],[18.45311,-34.08508],[18.4556,-34.08355],[18.45556,-34.08313],[18.45589,-34.08125],[18.45764,-34.081],[18.45782,-34.08027],[18.46327,-34.0799],[18.46314,-34.08101]]]}},{"type":"Feature","properties":{"id":"primrose","name":"Primrose","labelPriority":"secondary","selectionBasis":"named-sub-places","subPlaceCount":1},"geometry":{"type":"Polygon","coordinates":[[[18.53838,-33.98869],[18.53836,-33.98822],[18.53807,-33.9816],[18.54245,-33.9814],[18.54235,-33.97946],[18.54793,-33.98062],[18.549,-33.98088],[18.54836,-33.9835],[18.54809,-33.98492],[18.54257,-33.98532],[18.54272,-33.98855],[18.53838,-33.98869]]]}},{"type":"Feature","properties":{"id":"joe-slovo-boksburg","name":"Joe Slovo","labelPriority":"secondary","selectionBasis":"named-sub-places","subPlaceCount":1},"geometry":{"type":"Polygon","coordinates":[[[18.51279,-33.87013],[18.51397,-33.87075],[18.51251,-33.87299],[18.51173,-33.87468],[18.51144,-33.87607],[18.51138,-33.87741],[18.50846,-33.87697],[18.50873,-33.87576],[18.50838,-33.87403],[18.50983,-33.87215],[18.50948,-33.87054],[18.50997,-33.86976],[18.51079,-33.8702],[18.51143,-33.86942],[18.51279,-33.87013]]]}},{"type":"Feature","properties":{"id":"kanana","name":"Kanana","labelPriority":"secondary","selectionBasis":"named-sub-places","subPlaceCount":1},"geometry":{"type":"Polygon","coordinates":[[[18.57267,-33.96645],[18.57778,-33.97219],[18.57731,-33.97253],[18.57757,-33.97291],[18.57599,-33.97435],[18.57574,-33.97413],[18.57213,-33.97007],[18.57178,-33.97028],[18.57008,-33.9684],[18.5692,-33.96763],[18.568,-33.9669],[18.56856,-33.96554],[18.56878,-33.9639],[18.57052,-33.96475],[18.5713,-33.9653],[18.57085,-33.96605],[18.56981,-33.96614],[18.56996,-33.96704],[18.57095,-33.96768],[18.57151,-33.96761],[18.57267,-33.96645]]]}},{"type":"Feature","properties":{"id":"lesedi-devon","name":"Devon","labelPriority":"secondary","selectionBasis":"census-main-place","subPlaceCount":2},"geometry":{"type":"Polygon","coordinates":[[[18.72061,-34.01116],[18.72159,-34.01269],[18.72328,-34.01555],[18.72416,-34.01516],[18.7249,-34.0163],[18.72621,-34.01517],[18.72939,-34.01372],[18.73049,-34.0154],[18.73333,-34.01411],[18.73026,-34.00951],[18.73309,-34.00822],[18.73173,-34.00614],[18.72061,-34.01116]]]}},{"type":"Feature","properties":{"id":"langa","name":"Langa","labelPriority":"primary","selectionBasis":"census-main-place","subPlaceCount":1},"geometry":{"type":"Polygon","coordinates":[[[18.54095,-33.95532],[18.53791,-33.95427],[18.52771,-33.95087],[18.52554,-33.95038],[18.51881,-33.95016],[18.51881,-33.94783],[18.51668,-33.94775],[18.5169,-33.94269],[18.52017,-33.94041],[18.52134,-33.93932],[18.5219,-33.93848],[18.525,-33.9379],[18.52714,-33.93815],[18.52795,-33.93866],[18.53118,-33.93969],[18.53212,-33.93976],[18.53452,-33.94036],[18.53858,-33.94107],[18.54276,-33.94155],[18.5427,-33.94521],[18.54261,-33.94721],[18.54117,-33.95407],[18.54095,-33.95532]]]}},{"type":"Feature","properties":{"id":"nyanga","name":"Nyanga","labelPriority":"primary","selectionBasis":"census-main-place","subPlaceCount":5},"geometry":{"type":"MultiPolygon","coordinates":[[[[18.57272,-34.00223],[18.58536,-34.00119],[18.58692,-34.00098],[18.59255,-33.9998],[18.5926,-33.99883],[18.59201,-33.99729],[18.5912,-33.99056],[18.59142,-33.98842],[18.591,-33.98835],[18.57729,-33.98296],[18.573,-33.98942],[18.57279,-33.99011],[18.57353,-33.99911],[18.57372,-34.001],[18.57261,-34.00111],[18.57272,-34.00223]]],[[[18.59142,-33.98842],[18.5928,-33.98869],[18.59344,-33.98821],[18.59451,-33.98906],[18.59566,-33.98957],[18.59699,-33.99041],[18.5981,-33.99077],[18.60472,-33.99398],[18.60652,-33.99543],[18.60647,-33.99428],[18.61078,-33.99492],[18.60994,-33.99236],[18.59321,-33.98576],[18.59171,-33.98599],[18.59142,-33.98842]]]]}},{"type":"Feature","properties":{"id":"gugulethu","name":"Gugulethu","labelPriority":"primary","selectionBasis":"census-main-place","subPlaceCount":11},"geometry":{"type":"MultiPolygon","coordinates":[[[[18.55843,-34.00214],[18.56055,-34.00255],[18.56272,-34.00273],[18.56688,-34.00268],[18.57272,-34.00223],[18.57261,-34.00111],[18.57372,-34.001],[18.57353,-33.99911],[18.57279,-33.99011],[18.573,-33.98942],[18.57729,-33.98296],[18.591,-33.98835],[18.59142,-33.98842],[18.59171,-33.98599],[18.59321,-33.98576],[18.59164,-33.98495],[18.58874,-33.98299],[18.58492,-33.98022],[18.57908,-33.97376],[18.57778,-33.97219],[18.57731,-33.97253],[18.57757,-33.97291],[18.57599,-33.97435],[18.57574,-33.97413],[18.57213,-33.97007],[18.57178,-33.97028],[18.57008,-33.9684],[18.5692,-33.96763],[18.568,-33.9669],[18.56856,-33.96554],[18.56878,-33.9639],[18.56669,-33.96312],[18.56264,-33.9619],[18.56185,-33.97028],[18.56148,-33.97352],[18.56079,-33.98088],[18.55993,-33.99145],[18.55944,-33.99139],[18.55934,-33.99275],[18.55841,-34.00097],[18.55843,-34.00214]]],[[[18.57267,-33.96645],[18.5713,-33.9653],[18.57085,-33.96605],[18.56981,-33.96614],[18.56996,-33.96704],[18.57095,-33.96768],[18.57151,-33.96761],[18.57267,-33.96645]]],[[[18.59255,-33.9998],[18.59452,-33.99942],[18.5966,-33.99887],[18.59772,-33.99842],[18.6,-33.99793],[18.60762,-33.99706],[18.60885,-33.9971],[18.61958,-33.99828],[18.621,-33.99888],[18.62445,-34.00149],[18.62509,-34.00087],[18.6258,-34.00134],[18.62691,-33.99994],[18.62436,-33.99826],[18.62447,-33.9981],[18.61591,-33.9947],[18.60994,-33.99236],[18.61078,-33.99492],[18.60647,-33.99428],[18.60652,-33.99543],[18.60472,-33.99398],[18.5981,-33.99077],[18.59699,-33.99041],[18.59566,-33.98957],[18.59451,-33.98906],[18.59344,-33.98821],[18.5928,-33.98869],[18.59142,-33.98842],[18.5912,-33.99056],[18.59201,-33.99729],[18.5926,-33.99883],[18.59255,-33.9998]]]]}},{"type":"Feature","properties":{"id":"khayelitsha","name":"Khayelitsha","labelPriority":"primary","selectionBasis":"census-main-place","subPlaceCount":27},"geometry":{"type":"Polygon","coordinates":[[[18.62903,-34.00499],[18.6307,-34.00625],[18.6322,-34.00707],[18.63147,-34.00787],[18.63111,-34.00899],[18.63161,-34.01345],[18.63789,-34.01293],[18.63809,-34.01462],[18.63505,-34.01487],[18.63538,-34.01576],[18.63409,-34.01618],[18.63365,-34.01498],[18.63182,-34.01515],[18.6321,-34.01667],[18.63265,-34.02213],[18.63312,-34.02641],[18.63473,-34.03994],[18.63512,-34.04123],[18.63574,-34.04229],[18.63656,-34.04324],[18.64142,-34.04713],[18.64298,-34.04842],[18.64409,-34.04966],[18.64845,-34.05572],[18.64954,-34.05709],[18.65248,-34.0606],[18.65322,-34.06137],[18.65908,-34.06643],[18.66,-34.06712],[18.66196,-34.06821],[18.66511,-34.06932],[18.66647,-34.06988],[18.66894,-34.07145],[18.66966,-34.07245],[18.66956,-34.07345],[18.6715,-34.07348],[18.67396,-34.0739],[18.67679,-34.07378],[18.68192,-34.0744],[18.68391,-34.07436],[18.68426,-34.07481],[18.68506,-34.07466],[18.6864,-34.0748],[18.68757,-34.07468],[18.68852,-34.07425],[18.68995,-34.07418],[18.68964,-34.0738],[18.6897,-34.07315],[18.6901,-34.07276],[18.69114,-34.07255],[18.69295,-34.07248],[18.6929,-34.07218],[18.69404,-34.07194],[18.69528,-34.07129],[18.69905,-34.06817],[18.70018,-34.06737],[18.71229,-34.05762],[18.714,-34.05594],[18.71498,-34.05464],[18.71654,-34.05196],[18.72311,-34.0403],[18.72359,-34.0395],[18.69461,-34.02811],[18.67955,-34.02214],[18.66256,-34.01425],[18.65683,-34.01155],[18.6468,-34.00691],[18.63861,-34.00364],[18.63276,-34.00137],[18.62903,-34.00499]]]}},{"type":"Feature","properties":{"id":"mitchells-plain","name":"Mitchells Plain","labelPriority":"primary","selectionBasis":"census-main-place","subPlaceCount":19},"geometry":{"type":"Polygon","coordinates":[[[18.66956,-34.07345],[18.66966,-34.07245],[18.66894,-34.07145],[18.66647,-34.06988],[18.66511,-34.06932],[18.66196,-34.06821],[18.66,-34.06712],[18.65908,-34.06643],[18.65322,-34.06137],[18.65248,-34.0606],[18.64954,-34.05709],[18.64845,-34.05572],[18.64409,-34.04966],[18.64298,-34.04842],[18.64142,-34.04713],[18.63656,-34.04324],[18.63574,-34.04229],[18.63512,-34.04123],[18.63473,-34.03994],[18.63312,-34.02641],[18.63265,-34.02213],[18.6321,-34.01667],[18.63182,-34.01515],[18.63161,-34.01345],[18.63111,-34.00899],[18.63147,-34.00787],[18.6322,-34.00707],[18.6307,-34.00625],[18.62903,-34.00499],[18.61926,-34.01445],[18.61832,-34.01516],[18.61688,-34.01596],[18.61546,-34.01651],[18.61386,-34.01691],[18.595,-34.02032],[18.58373,-34.02241],[18.57419,-34.02413],[18.57777,-34.02877],[18.58064,-34.03259],[18.5819,-34.03468],[18.58278,-34.03648],[18.58344,-34.03831],[18.58507,-34.04312],[18.58701,-34.04918],[18.58728,-34.05065],[18.58731,-34.05272],[18.58768,-34.05345],[18.59321,-34.05859],[18.58209,-34.06185],[18.57211,-34.06481],[18.57229,-34.06535],[18.56614,-34.06717],[18.56242,-34.06805],[18.56216,-34.0675],[18.55028,-34.06999],[18.54944,-34.07023],[18.53869,-34.07243],[18.54199,-34.07566],[18.54596,-34.07993],[18.54565,-34.08008],[18.54894,-34.08884],[18.55132,-34.0887],[18.55229,-34.0888],[18.55345,-34.0893],[18.55386,-34.08965],[18.55504,-34.08939],[18.55602,-34.08894],[18.5565,-34.08817],[18.55649,-34.0877],[18.55749,-34.08757],[18.5592,-34.08694],[18.56133,-34.08661],[18.56243,-34.08612],[18.5629,-34.08614],[18.56443,-34.08562],[18.56575,-34.08546],[18.56696,-34.08502],[18.57263,-34.08349],[18.57456,-34.08311],[18.57674,-34.08256],[18.58005,-34.08187],[18.58245,-34.08121],[18.5828,-34.08123],[18.5868,-34.08029],[18.5903,-34.07938],[18.59183,-34.07918],[18.59356,-34.07881],[18.59939,-34.07774],[18.60063,-34.07744],[18.60376,-34.07713],[18.60739,-34.07643],[18.61049,-34.07603],[18.61253,-34.07566],[18.61535,-34.0753],[18.61588,-34.07543],[18.61943,-34.07548],[18.6202,-34.0757],[18.62143,-34.07558],[18.6219,-34.0752],[18.62406,-34.07456],[18.62633,-34.07441],[18.62671,-34.0742],[18.62821,-34.0739],[18.62961,-34.07383],[18.63024,-34.07363],[18.63141,-34.07368],[18.63337,-34.07338],[18.63369,-34.0735],[18.63547,-34.07341],[18.63952,-34.07341],[18.64015,-34.07326],[18.64303,-34.07326],[18.6456,-34.07295],[18.64961,-34.07308],[18.65261,-34.07305],[18.65359,-34.07326],[18.65472,-34.0731],[18.65627,-34.07305],[18.65644,-34.0732],[18.65909,-34.073],[18.66109,-34.07306],[18.6636,-34.073],[18.66956,-34.07345]]]}},{"type":"Feature","properties":{"id":"bishop-lavis","name":"Bishop Lavis","labelPriority":"secondary","selectionBasis":"census-main-place","subPlaceCount":1},"geometry":{"type":"Polygon","coordinates":[[[18.58205,-33.94315],[18.58629,-33.94377],[18.58822,-33.94394],[18.5899,-33.94377],[18.59314,-33.943],[18.59487,-33.94599],[18.59539,-33.94659],[18.59696,-33.94761],[18.59817,-33.94799],[18.59636,-33.94918],[18.59374,-33.95116],[18.5889,-33.95472],[18.58865,-33.95384],[18.58796,-33.9543],[18.58727,-33.95377],[18.58662,-33.95419],[18.58616,-33.9537],[18.58524,-33.95388],[18.57996,-33.95352],[18.57933,-33.95335],[18.5796,-33.95231],[18.5769,-33.95213],[18.57631,-33.95198],[18.57307,-33.95032],[18.57288,-33.94913],[18.56637,-33.94903],[18.5664,-33.94319],[18.56782,-33.94328],[18.57156,-33.94295],[18.57315,-33.94287],[18.58029,-33.94296],[18.58205,-33.94315]]]}},{"type":"Feature","properties":{"id":"manenberg","name":"Manenberg","labelPriority":"primary","selectionBasis":"named-sub-places","subPlaceCount":1},"geometry":{"type":"Polygon","coordinates":[[[18.55843,-34.00214],[18.55145,-34.00068],[18.54943,-34.00023],[18.54952,-33.99916],[18.54869,-33.98489],[18.54809,-33.98492],[18.54836,-33.9835],[18.549,-33.98088],[18.54793,-33.98062],[18.55101,-33.97043],[18.5542,-33.97093],[18.55622,-33.97147],[18.56148,-33.97352],[18.56079,-33.98088],[18.55993,-33.99145],[18.55944,-33.99139],[18.55934,-33.99275],[18.55841,-34.00097],[18.55843,-34.00214]]]}},{"type":"Feature","properties":{"id":"bonteheuwel","name":"Bonteheuwel","labelPriority":"primary","selectionBasis":"named-sub-places","subPlaceCount":1},"geometry":{"type":"Polygon","coordinates":[[[18.56264,-33.9619],[18.55201,-33.95871],[18.54888,-33.95775],[18.54786,-33.95749],[18.54095,-33.95532],[18.54117,-33.95407],[18.54261,-33.94721],[18.5427,-33.94521],[18.54276,-33.94155],[18.55443,-33.9423],[18.55831,-33.94266],[18.55959,-33.94297],[18.56057,-33.94345],[18.56139,-33.94408],[18.56188,-33.94483],[18.56258,-33.9465],[18.56382,-33.94997],[18.56386,-33.95075],[18.56352,-33.95434],[18.56304,-33.95785],[18.56264,-33.9619]]]}},{"type":"Feature","properties":{"id":"heideveld","name":"Heideveld","labelPriority":"secondary","selectionBasis":"named-sub-places","subPlaceCount":1},"geometry":{"type":"Polygon","coordinates":[[[18.56148,-33.97352],[18.55622,-33.97147],[18.5542,-33.97093],[18.55101,-33.97043],[18.54532,-33.96974],[18.54729,-33.96605],[18.54752,-33.96221],[18.54771,-33.95806],[18.54786,-33.95749],[18.54888,-33.95775],[18.55201,-33.95871],[18.56264,-33.9619],[18.56185,-33.97028],[18.56148,-33.97352]]]}},{"type":"Feature","properties":{"id":"hanover-park","name":"Hanover Park","labelPriority":"secondary","selectionBasis":"named-sub-places","subPlaceCount":1},"geometry":{"type":"Polygon","coordinates":[[[18.53836,-33.98822],[18.53838,-33.98869],[18.53855,-33.99285],[18.53872,-33.99432],[18.53932,-33.99592],[18.54041,-33.99745],[18.54158,-33.99846],[18.54335,-33.99951],[18.53969,-33.99974],[18.53793,-33.99994],[18.52737,-34.00097],[18.52146,-34.0019],[18.52119,-34.00068],[18.52021,-33.99898],[18.51922,-33.99809],[18.51849,-33.99765],[18.51952,-33.99761],[18.51941,-33.99674],[18.52053,-33.99668],[18.52098,-33.99364],[18.52429,-33.99341],[18.52459,-33.99332],[18.52764,-33.989],[18.52836,-33.98867],[18.53123,-33.9885],[18.53444,-33.9884],[18.53446,-33.98849],[18.53836,-33.98822]]]}},{"type":"Feature","properties":{"id":"elsies-river","name":"Elsies River","labelPriority":"secondary","selectionBasis":"named-sub-places","subPlaceCount":1},"geometry":{"type":"Polygon","coordinates":[[[18.57979,-33.93669],[18.57791,-33.93693],[18.57625,-33.93471],[18.57617,-33.93444],[18.57482,-33.93254],[18.57558,-33.93214],[18.57541,-33.93182],[18.57669,-33.93141],[18.57727,-33.93093],[18.58338,-33.93556],[18.58373,-33.93614],[18.57979,-33.93669]]]}}]}