{"type":"FeatureCollection","features":[{"type":"Feature","properties":{"id":"node/326083326","name":"Marlboro","network":"Gautrain"},"geometry":{"type":"Point","coordinates":[28.11165,-26.08334]}},{"type":"Feature","properties":{"id":"node/6983349354","name":"O.R. Tambo International Airport","network":"Gautrain"},"geometry":{"type":"Point","coordinates":[28.2311,-26.13217]}},{"type":"Feature","properties":{"id":"node/6983349355","name":"Rhodesfield","network":"Gautrain"},"geometry":{"type":"Point","coordinates":[28.22456,-26.12728]}},{"type":"Feature","properties":{"id":"node/6983463551","name":"Park Station","network":"Gautrain"},"geometry":{"type":"Point","coordinates":[28.04168,-26.19678]}},{"type":"Feature","properties":{"id":"node/6983499376","name":"Hatfield","network":"Gautrain"},"geometry":{"type":"Point","coordinates":[28.23787,-25.74764]}},{"type":"Feature","properties":{"id":"node/6983501555","name":"Pretoria Gautrain Station","network":"Gautrain"},"geometry":{"type":"Point","coordinates":[28.19045,-25.75956]}},{"type":"Feature","properties":{"id":"node/6983509221","name":"Sandton","network":"Gautrain"},"geometry":{"type":"Point","coordinates":[28.05693,-26.10828]}},{"type":"Feature","properties":{"id":"node/6983528224","name":"Centurion","network":"Gautrain"},"geometry":{"type":"Point","coordinates":[28.18959,-25.85167]}},{"type":"Feature","properties":{"id":"node/6983544367","name":"Rosebank","network":"Gautrain"},"geometry":{"type":"Point","coordinates":[28.04414,-26.14507]}},{"type":"Feature","properties":{"id":"node/6983563278","name":"Midrand","network":"Gautrain"},"geometry":{"type":"Point","coordinates":[28.13567,-25.99562]}},{"type":"Feature","properties":{"id":"way/24582629","name":"Gautrain","network":"Gautrain"},"geometry":{"type":"LineString","coordinates":[[28.04152,-26.19564],[28.0416,-26.19552],[28.04293,-26.19359],[28.04303,-26.19341],[28.04312,-26.19319],[28.04322,-26.1929],[28.04408,-26.19009],[28.04416,-26.18985],[28.04427,-26.18961],[28.04863,-26.18196],[28.04994,-26.17953],[28.05013,-26.17905],[28.05026,-26.17859],[28.05032,-26.17813],[28.05034,-26.17756],[28.05031,-26.17703],[28.05026,-26.17646],[28.05019,-26.17597],[28.0442,-26.14551],[28.04366,-26.14287],[28.04353,-26.1419],[28.04345,-26.14123],[28.04341,-26.14061],[28.04343,-26.14005],[28.0435,-26.13959],[28.04365,-26.13893],[28.0438,-26.13832],[28.04623,-26.12748],[28.04625,-26.12732],[28.04656,-26.12137],[28.0466,-26.12077],[28.04666,-26.12025],[28.04672,-26.11973],[28.04683,-26.11913],[28.04704,-26.11829],[28.0473,-26.11751],[28.04759,-26.11692],[28.04799,-26.11621],[28.04852,-26.11551],[28.04892,-26.11504],[28.04929,-26.11463],[28.04985,-26.11398],[28.05051,-26.11333],[28.05139,-26.11257],[28.05226,-26.11178],[28.05342,-26.11085],[28.05457,-26.11003],[28.05722,-26.10807]]}},{"type":"Feature","properties":{"id":"way/29591408","name":"Gautrain","network":"Gautrain"},"geometry":{"type":"LineString","coordinates":[[28.23122,-26.13221],[28.23092,-26.13215],[28.2295,-26.13185],[28.2284,-26.13161],[28.22811,-26.13155],[28.2278,-26.13147],[28.22758,-26.1314],[28.22744,-26.13135],[28.22732,-26.13129],[28.22719,-26.13123],[28.22707,-26.13116],[28.22694,-26.13107],[28.22675,-26.13092],[28.22655,-26.13072],[28.22641,-26.13056],[28.22626,-26.13034],[28.22603,-26.12994],[28.22571,-26.12934],[28.22566,-26.12926],[28.22553,-26.12901],[28.22533,-26.12867],[28.22497,-26.12803],[28.22455,-26.1273]]}},{"type":"Feature","properties":{"id":"way/29598349","name":"Gautrain","network":"Gautrain"},"geometry":{"type":"LineString","coordinates":[[28.18987,-25.7587],[28.19051,-25.7595],[28.19104,-25.76019]]}},{"type":"Feature","properties":{"id":"way/29599836","name":"Gautrain","network":"Gautrain"},"geometry":{"type":"LineString","coordinates":[[28.22044,-26.12444],[28.21991,-26.12431],[28.21925,-26.12416],[28.21855,-26.12399],[28.21793,-26.12383],[28.21738,-26.12367],[28.21692,-26.12351],[28.21666,-26.1234],[28.21636,-26.12328],[28.21597,-26.12309],[28.2155,-26.12286],[28.21452,-26.12236],[28.21353,-26.12186],[28.21147,-26.12077],[28.21016,-26.1201],[28.20682,-26.11836],[28.20426,-26.11701],[28.20285,-26.11629],[28.20155,-26.11561],[28.20121,-26.11542],[28.2,-26.1148]]}},{"type":"Feature","properties":{"id":"way/29599849","name":"Gautrain","network":"Gautrain"},"geometry":{"type":"LineString","coordinates":[[28.05722,-26.10807],[28.05862,-26.10709],[28.05942,-26.10657],[28.06017,-26.10614],[28.06177,-26.10523],[28.06367,-26.10421],[28.06448,-26.10381],[28.0651,-26.10353],[28.07152,-26.101]]}},{"type":"Feature","properties":{"id":"way/64241251","name":"Gautrain","network":"Gautrain"},"geometry":{"type":"LineString","coordinates":[[28.19694,-25.7634],[28.19674,-25.76353],[28.19654,-25.76363],[28.19642,-25.76369],[28.19624,-25.76376],[28.19611,-25.7638],[28.196,-25.76383],[28.19586,-25.76386],[28.1957,-25.76389],[28.19556,-25.7639],[28.1954,-25.76391],[28.19525,-25.76391],[28.19514,-25.76391],[28.19504,-25.7639],[28.19487,-25.76388],[28.19474,-25.76385],[28.1946,-25.76382],[28.19445,-25.76376],[28.19426,-25.76369],[28.19406,-25.76359],[28.19388,-25.76348],[28.19376,-25.7634],[28.19361,-25.76329],[28.19349,-25.76318],[28.19334,-25.76302],[28.1932,-25.76289],[28.1931,-25.76276]]}},{"type":"Feature","properties":{"id":"way/64241257","name":"Gautrain","network":"Gautrain"},"geometry":{"type":"LineString","coordinates":[[28.19301,-25.76281],[28.19312,-25.76295],[28.19321,-25.76308],[28.19329,-25.76322],[28.19341,-25.76343],[28.1935,-25.76372],[28.19354,-25.76394],[28.19357,-25.76416],[28.19358,-25.76433],[28.19357,-25.76455],[28.19355,-25.76476],[28.19353,-25.76496],[28.19346,-25.76554],[28.1934,-25.76613]]}},{"type":"Feature","properties":{"id":"way/64272349","name":"Gautrain","network":"Gautrain"},"geometry":{"type":"LineString","coordinates":[[28.19209,-25.77691],[28.19146,-25.77875],[28.19082,-25.78036]]}},{"type":"Feature","properties":{"id":"way/64272351","name":"Gautrain","network":"Gautrain"},"geometry":{"type":"LineString","coordinates":[[28.1928,-25.77472],[28.1926,-25.77532],[28.19233,-25.77617],[28.19209,-25.77691]]}},{"type":"Feature","properties":{"id":"way/64794304","name":"Gautrain","network":"Gautrain"},"geometry":{"type":"LineString","coordinates":[[28.18356,-25.83453],[28.18374,-25.83573],[28.18399,-25.83745],[28.18418,-25.83875],[28.18438,-25.84005],[28.18483,-25.84295],[28.18498,-25.84366],[28.1851,-25.84412],[28.18524,-25.84463],[28.18542,-25.84516],[28.1856,-25.8456],[28.18577,-25.84604],[28.18615,-25.8468],[28.1865,-25.84746],[28.18693,-25.84814],[28.18729,-25.84865],[28.18892,-25.85087],[28.18916,-25.85119]]}},{"type":"Feature","properties":{"id":"way/65502778","name":"Gautrain","network":"Gautrain"},"geometry":{"type":"LineString","coordinates":[[28.23934,-25.74727],[28.23897,-25.74737],[28.23861,-25.74747]]}},{"type":"Feature","properties":{"id":"way/65502792","name":"Gautrain","network":"Gautrain"},"geometry":{"type":"LineString","coordinates":[[28.1481,-26.09146],[28.14726,-26.09098]]}},{"type":"Feature","properties":{"id":"way/65502796","name":"Gautrain","network":"Gautrain"},"geometry":{"type":"LineString","coordinates":[[28.17835,-26.10248],[28.17782,-26.10227],[28.17748,-26.10215],[28.17716,-26.10204]]}},{"type":"Feature","properties":{"id":"way/65502798","name":"Gautrain","network":"Gautrain"},"geometry":{"type":"LineString","coordinates":[[28.2,-26.1148],[28.19951,-26.11456],[28.1991,-26.11437],[28.19851,-26.11409],[28.19776,-26.11373],[28.19698,-26.11337],[28.19661,-26.11319],[28.19623,-26.11301],[28.19552,-26.11265],[28.19414,-26.11194]]}},{"type":"Feature","properties":{"id":"way/65502803","name":"Gautrain","network":"Gautrain"},"geometry":{"type":"LineString","coordinates":[[28.17168,-26.10106],[28.17109,-26.10098]]}},{"type":"Feature","properties":{"id":"way/65502804","name":"Gautrain","network":"Gautrain"},"geometry":{"type":"LineString","coordinates":[[28.17248,-26.10118],[28.17168,-26.10106]]}},{"type":"Feature","properties":{"id":"way/65502810","name":"Gautrain","network":"Gautrain"},"geometry":{"type":"LineString","coordinates":[[28.17716,-26.10204],[28.17675,-26.10192],[28.17632,-26.10179],[28.17593,-26.1017],[28.17553,-26.10161],[28.17522,-26.10156],[28.17482,-26.10149],[28.17357,-26.10131],[28.17248,-26.10118]]}},{"type":"Feature","properties":{"id":"way/65502813","name":"Gautrain","network":"Gautrain"},"geometry":{"type":"LineString","coordinates":[[28.1934,-25.76613],[28.19326,-25.7673],[28.19319,-25.76793],[28.19311,-25.7686],[28.19304,-25.76939],[28.19301,-25.76986]]}},{"type":"Feature","properties":{"id":"way/65502818","name":"Gautrain","network":"Gautrain"},"geometry":{"type":"LineString","coordinates":[[28.12835,-26.02331],[28.1282,-26.02433],[28.12805,-26.02529],[28.12795,-26.02587],[28.12779,-26.02655],[28.1277,-26.02693],[28.12758,-26.02736],[28.12742,-26.02787],[28.12723,-26.02839],[28.12708,-26.02875],[28.12694,-26.02909]]}},{"type":"Feature","properties":{"id":"way/65502825","name":"Gautrain","network":"Gautrain"},"geometry":{"type":"LineString","coordinates":[[28.16068,-26.09811],[28.15862,-26.09712]]}},{"type":"Feature","properties":{"id":"way/65502826","name":"Gautrain","network":"Gautrain"},"geometry":{"type":"LineString","coordinates":[[28.19414,-26.11194],[28.19283,-26.11124],[28.19143,-26.11055],[28.18874,-26.10918],[28.18847,-26.10903],[28.18806,-26.10883],[28.18741,-26.10847],[28.18673,-26.1081],[28.18622,-26.1078],[28.18588,-26.10758],[28.18552,-26.10734],[28.18478,-26.10682],[28.18402,-26.10625],[28.18326,-26.10568],[28.1825,-26.10512],[28.18173,-26.10453],[28.18079,-26.10384],[28.18052,-26.10365],[28.18022,-26.10346]]}},{"type":"Feature","properties":{"id":"way/65502828","name":"Gautrain","network":"Gautrain"},"geometry":{"type":"LineString","coordinates":[[28.17109,-26.10098],[28.16986,-26.1008],[28.16897,-26.10067],[28.16816,-26.10055],[28.1676,-26.10047],[28.167,-26.10036],[28.16633,-26.10024],[28.16567,-26.10008],[28.16512,-26.09993],[28.1646,-26.09976],[28.16393,-26.09953],[28.16328,-26.0993],[28.16251,-26.09898],[28.16196,-26.09872],[28.16108,-26.0983]]}},{"type":"Feature","properties":{"id":"way/65502829","name":"Gautrain","network":"Gautrain"},"geometry":{"type":"LineString","coordinates":[[28.12694,-26.02909],[28.12666,-26.02976],[28.12633,-26.03037],[28.12603,-26.03093],[28.12589,-26.03119],[28.12539,-26.03211],[28.12497,-26.0329],[28.12454,-26.03368],[28.12424,-26.03423],[28.12386,-26.03493],[28.12379,-26.03506],[28.12369,-26.03526],[28.12348,-26.03563]]}},{"type":"Feature","properties":{"id":"way/65502833","name":"Gautrain","network":"Gautrain"},"geometry":{"type":"LineString","coordinates":[[28.13813,-26.08562],[28.1373,-26.08513],[28.13648,-26.08465],[28.13598,-26.08434],[28.13542,-26.08402],[28.13464,-26.08357],[28.134,-26.08324],[28.13349,-26.08298],[28.13295,-26.08273],[28.13252,-26.08256],[28.13198,-26.08235],[28.13104,-26.08202],[28.13008,-26.08172],[28.12955,-26.08158],[28.129,-26.08145],[28.12817,-26.08127],[28.12729,-26.08114],[28.1265,-26.08103],[28.1258,-26.08097],[28.12508,-26.08093],[28.1245,-26.08091],[28.1241,-26.0809],[28.12377,-26.08091],[28.12312,-26.08093],[28.12237,-26.08097],[28.1219,-26.08102],[28.12144,-26.08107],[28.12094,-26.08113],[28.12011,-26.08128],[28.11939,-26.08143],[28.11872,-26.08158],[28.11809,-26.08175],[28.11776,-26.08184],[28.1173,-26.08197]]}},{"type":"Feature","properties":{"id":"way/65502836","name":"Gautrain","network":"Gautrain"},"geometry":{"type":"LineString","coordinates":[[28.17908,-26.10282],[28.17865,-26.10262],[28.17835,-26.10248]]}},{"type":"Feature","properties":{"id":"way/65502848","name":"Gautrain","network":"Gautrain"},"geometry":{"type":"LineString","coordinates":[[28.16108,-26.0983],[28.16068,-26.09811]]}},{"type":"Feature","properties":{"id":"way/65582285","name":"Gautrain","network":"Gautrain"},"geometry":{"type":"LineString","coordinates":[[28.18762,-25.8698],[28.18698,-25.87011],[28.18549,-25.87081],[28.18398,-25.87153],[28.18252,-25.87223],[28.18175,-25.8726],[28.18103,-25.87292],[28.18021,-25.8733],[28.1794,-25.87365],[28.17854,-25.87404],[28.17769,-25.87442],[28.17684,-25.87481],[28.17589,-25.87526],[28.1756,-25.8754],[28.17533,-25.87556],[28.17481,-25.87586],[28.17419,-25.87626],[28.17384,-25.87648],[28.17352,-25.87672],[28.17299,-25.87709],[28.1725,-25.87751],[28.17208,-25.87788],[28.17159,-25.87834],[28.17124,-25.8787],[28.17087,-25.8791],[28.17021,-25.87988],[28.1699,-25.88029],[28.16965,-25.88067],[28.16936,-25.88111],[28.16912,-25.8815],[28.16867,-25.88236],[28.16845,-25.88281],[28.16824,-25.88326],[28.168,-25.88385],[28.1678,-25.88451],[28.16746,-25.88565],[28.16712,-25.8869],[28.16679,-25.88812],[28.16648,-25.88935],[28.16634,-25.88987],[28.16621,-25.89029],[28.16593,-25.89138],[28.16563,-25.89247],[28.16544,-25.89315],[28.16526,-25.89386],[28.16487,-25.89524],[28.16468,-25.89596],[28.1645,-25.89666],[28.1643,-25.89737],[28.16411,-25.89804],[28.16347,-25.90044],[28.16323,-25.9014],[28.16301,-25.90214],[28.1628,-25.90293],[28.16259,-25.90373],[28.1622,-25.90523]]}},{"type":"Feature","properties":{"id":"way/65582290","name":"Gautrain","network":"Gautrain"},"geometry":{"type":"LineString","coordinates":[[28.15192,-25.92605],[28.15063,-25.9281],[28.15031,-25.92866],[28.15001,-25.92919],[28.14977,-25.92972]]}},{"type":"Feature","properties":{"id":"way/65582291","name":"Gautrain","network":"Gautrain"},"geometry":{"type":"LineString","coordinates":[[28.14312,-25.94821],[28.143,-25.94857]]}},{"type":"Feature","properties":{"id":"way/65582293","name":"Gautrain","network":"Gautrain"},"geometry":{"type":"LineString","coordinates":[[28.21961,-25.76013],[28.21949,-25.76015]]}},{"type":"Feature","properties":{"id":"way/65582294","name":"Gautrain","network":"Gautrain"},"geometry":{"type":"LineString","coordinates":[[28.21997,-25.76004],[28.21975,-25.7601],[28.21961,-25.76013]]}},{"type":"Feature","properties":{"id":"way/65582297","name":"Gautrain","network":"Gautrain"},"geometry":{"type":"LineString","coordinates":[[28.19082,-25.78036],[28.19059,-25.78097],[28.19036,-25.78157],[28.18992,-25.78278]]}},{"type":"Feature","properties":{"id":"way/65582301","name":"Gautrain","network":"Gautrain"},"geometry":{"type":"LineString","coordinates":[[28.135,-25.99491],[28.1353,-25.99549]]}},{"type":"Feature","properties":{"id":"way/65582304","name":"Gautrain","network":"Gautrain"},"geometry":{"type":"LineString","coordinates":[[28.12071,-26.05572],[28.1206,-26.05612],[28.12052,-26.05651],[28.1204,-26.05701],[28.12027,-26.05747]]}},{"type":"Feature","properties":{"id":"way/65582305","name":"Gautrain","network":"Gautrain"},"geometry":{"type":"LineString","coordinates":[[28.14245,-25.95042],[28.14204,-25.95211],[28.14176,-25.95321],[28.14158,-25.9539],[28.14132,-25.95499],[28.14084,-25.95707]]}},{"type":"Feature","properties":{"id":"way/65582308","name":"Gautrain","network":"Gautrain"},"geometry":{"type":"LineString","coordinates":[[28.14935,-25.9307],[28.14911,-25.93137],[28.14891,-25.93191]]}},{"type":"Feature","properties":{"id":"way/65582314","name":"Gautrain","network":"Gautrain"},"geometry":{"type":"LineString","coordinates":[[28.18925,-25.78471],[28.18915,-25.78502],[28.18903,-25.78532],[28.18893,-25.78557],[28.18878,-25.78593],[28.18839,-25.78669],[28.1882,-25.78707],[28.18798,-25.78741],[28.18776,-25.78773],[28.18748,-25.78812],[28.18717,-25.78851],[28.18659,-25.78915],[28.18631,-25.78943],[28.18585,-25.78985],[28.18513,-25.79045],[28.18495,-25.79059],[28.1848,-25.79071],[28.18453,-25.79091],[28.18398,-25.79134],[28.18347,-25.79175],[28.18302,-25.79213],[28.18279,-25.79234],[28.18238,-25.79276],[28.18217,-25.79299],[28.18197,-25.79322],[28.18165,-25.79362],[28.18139,-25.79398],[28.18113,-25.79438],[28.18097,-25.79462],[28.18072,-25.79508],[28.1805,-25.79551],[28.1803,-25.79597],[28.18011,-25.79645],[28.17995,-25.79694],[28.17986,-25.79725],[28.17979,-25.79754],[28.17968,-25.79818],[28.17961,-25.79895],[28.1796,-25.79914]]}},{"type":"Feature","properties":{"id":"way/65582318","name":"Gautrain","network":"Gautrain"},"geometry":{"type":"LineString","coordinates":[[28.22439,-25.75608],[28.22211,-25.75862],[28.22174,-25.75901],[28.22137,-25.75935],[28.22111,-25.75953],[28.22085,-25.75968],[28.22052,-25.75985],[28.22014,-25.75998]]}},{"type":"Feature","properties":{"id":"way/65582334","name":"Gautrain","network":"Gautrain"},"geometry":{"type":"LineString","coordinates":[[28.143,-25.94857],[28.1427,-25.94952],[28.14245,-25.95042]]}},{"type":"Feature","properties":{"id":"way/65582339","name":"Gautrain","network":"Gautrain"},"geometry":{"type":"LineString","coordinates":[[28.14084,-25.95707],[28.14022,-25.95975],[28.1396,-25.96234],[28.13932,-25.96339],[28.13904,-25.96438],[28.13847,-25.96643],[28.1374,-25.96989],[28.13684,-25.97166],[28.13632,-25.9734],[28.13521,-25.97701],[28.13462,-25.97888],[28.13435,-25.9798],[28.13407,-25.98072],[28.13374,-25.98178]]}},{"type":"Feature","properties":{"id":"way/65582340","name":"Gautrain","network":"Gautrain"},"geometry":{"type":"LineString","coordinates":[[28.1353,-25.99549],[28.13558,-25.99604],[28.13583,-25.99654],[28.13635,-25.99758],[28.13687,-25.99865],[28.13707,-25.99916]]}},{"type":"Feature","properties":{"id":"way/65582343","name":"Gautrain","network":"Gautrain"},"geometry":{"type":"LineString","coordinates":[[28.15216,-25.92568],[28.15192,-25.92605]]}},{"type":"Feature","properties":{"id":"way/65582346","name":"Gautrain","network":"Gautrain"},"geometry":{"type":"LineString","coordinates":[[28.22473,-25.75573],[28.22439,-25.75608]]}},{"type":"Feature","properties":{"id":"way/65582348","name":"Gautrain","network":"Gautrain"},"geometry":{"type":"LineString","coordinates":[[28.12027,-26.05747],[28.12002,-26.0582],[28.11979,-26.05887]]}},{"type":"Feature","properties":{"id":"way/65582352","name":"Gautrain","network":"Gautrain"},"geometry":{"type":"LineString","coordinates":[[28.22014,-25.75998],[28.21997,-25.76004]]}},{"type":"Feature","properties":{"id":"way/65582369","name":"Gautrain","network":"Gautrain"},"geometry":{"type":"LineString","coordinates":[[28.21949,-25.76015],[28.21904,-25.76022],[28.21864,-25.76023],[28.218,-25.76017],[28.2173,-25.76007],[28.21634,-25.75996],[28.21543,-25.75983],[28.21511,-25.75982]]}},{"type":"Feature","properties":{"id":"way/65582374","name":"Gautrain","network":"Gautrain"},"geometry":{"type":"LineString","coordinates":[[28.14977,-25.92972],[28.14958,-25.93015],[28.14945,-25.93043],[28.14935,-25.9307]]}},{"type":"Feature","properties":{"id":"way/124122878","name":"Gautrain","network":"Gautrain"},"geometry":{"type":"LineString","coordinates":[[28.22455,-26.1273],[28.22409,-26.12647],[28.22385,-26.12604],[28.22364,-26.12574],[28.2235,-26.12558],[28.22329,-26.1254],[28.22307,-26.12523],[28.22285,-26.1251],[28.22259,-26.12497],[28.22228,-26.12487],[28.22137,-26.12465],[28.22044,-26.12444]]}},{"type":"Feature","properties":{"id":"way/164079338","name":"Gautrain","network":"Gautrain"},"geometry":{"type":"LineString","coordinates":[[28.10372,-26.08507],[28.10396,-26.08499],[28.10418,-26.08493]]}},{"type":"Feature","properties":{"id":"way/164079339","name":"Gautrain","network":"Gautrain"},"geometry":{"type":"LineString","coordinates":[[28.10362,-26.08482],[28.10383,-26.08478],[28.10402,-26.08475]]}},{"type":"Feature","properties":{"id":"way/164079341","name":"Gautrain","network":"Gautrain"},"geometry":{"type":"LineString","coordinates":[[28.1039,-26.0852],[28.10426,-26.08511]]}},{"type":"Feature","properties":{"id":"way/164079342","name":"Gautrain","network":"Gautrain"},"geometry":{"type":"LineString","coordinates":[[28.10402,-26.08475],[28.10432,-26.08472],[28.10462,-26.0847],[28.10586,-26.0846],[28.10647,-26.08455],[28.10685,-26.08451],[28.10733,-26.08444],[28.10751,-26.08441]]}},{"type":"Feature","properties":{"id":"way/164079348","name":"Gautrain","network":"Gautrain"},"geometry":{"type":"LineString","coordinates":[[28.11331,-26.08304],[28.11457,-26.08271],[28.1159,-26.08237],[28.1173,-26.08197]]}},{"type":"Feature","properties":{"id":"way/164079351","name":"Gautrain","network":"Gautrain"},"geometry":{"type":"LineString","coordinates":[[28.10461,-26.08481],[28.10488,-26.08474],[28.10527,-26.08465],[28.10548,-26.08461],[28.1057,-26.08457],[28.1059,-26.08454]]}},{"type":"Feature","properties":{"id":"way/164079353","name":"Gautrain","network":"Gautrain"},"geometry":{"type":"LineString","coordinates":[[28.10998,-26.08371],[28.11114,-26.08342],[28.11269,-26.08305],[28.11323,-26.08292]]}},{"type":"Feature","properties":{"id":"way/164079355","name":"Gautrain","network":"Gautrain"},"geometry":{"type":"LineString","coordinates":[[28.10997,-26.08385],[28.11062,-26.08369],[28.11104,-26.08359],[28.11273,-26.08318],[28.11331,-26.08304]]}},{"type":"Feature","properties":{"id":"way/164079356","name":"Gautrain","network":"Gautrain"},"geometry":{"type":"LineString","coordinates":[[28.10759,-26.0842],[28.10774,-26.08417],[28.10921,-26.08387],[28.10998,-26.08371]]}},{"type":"Feature","properties":{"id":"way/164079358","name":"Gautrain","network":"Gautrain"},"geometry":{"type":"LineString","coordinates":[[28.10753,-26.08445],[28.10816,-26.08429],[28.10882,-26.08413],[28.10939,-26.08399],[28.10997,-26.08385]]}},{"type":"Feature","properties":{"id":"way/164079360","name":"Gautrain","network":"Gautrain"},"geometry":{"type":"LineString","coordinates":[[28.10426,-26.08511],[28.10473,-26.08501],[28.10532,-26.0849],[28.1059,-26.08479],[28.10654,-26.08466],[28.1071,-26.08455],[28.10753,-26.08445]]}},{"type":"Feature","properties":{"id":"way/164079361","name":"Gautrain","network":"Gautrain"},"geometry":{"type":"LineString","coordinates":[[28.09988,-26.08695],[28.10003,-26.08686],[28.10061,-26.08653],[28.10107,-26.08627],[28.1015,-26.08604],[28.10186,-26.08585],[28.10223,-26.08566],[28.10267,-26.08547],[28.1031,-26.08529],[28.10372,-26.08507]]}},{"type":"Feature","properties":{"id":"way/164079362","name":"Gautrain","network":"Gautrain"},"geometry":{"type":"LineString","coordinates":[[28.11323,-26.08292],[28.11453,-26.08256],[28.11588,-26.08214],[28.11659,-26.08188],[28.11703,-26.08166],[28.11735,-26.08148],[28.11773,-26.08123],[28.11795,-26.08108]]}},{"type":"Feature","properties":{"id":"way/164079364","name":"Gautrain","network":"Gautrain"},"geometry":{"type":"LineString","coordinates":[[28.09989,-26.08696],[28.10005,-26.08688],[28.10065,-26.08658],[28.10141,-26.0862],[28.10191,-26.08596],[28.1024,-26.08573],[28.10289,-26.08553],[28.10331,-26.08538],[28.1036,-26.08529],[28.1039,-26.0852]]}},{"type":"Feature","properties":{"id":"way/164079366","name":"Gautrain","network":"Gautrain"},"geometry":{"type":"LineString","coordinates":[[28.09985,-26.08688],[28.10024,-26.08663],[28.10057,-26.08642],[28.10138,-26.08591],[28.10164,-26.08574],[28.10205,-26.08548],[28.10245,-26.08525],[28.10265,-26.08515],[28.10286,-26.08506],[28.10303,-26.08499],[28.10319,-26.08494],[28.10342,-26.08487],[28.10362,-26.08482]]}},{"type":"Feature","properties":{"id":"way/164082082","name":"Gautrain","network":"Gautrain"},"geometry":{"type":"LineString","coordinates":[[28.15315,-26.09442],[28.15264,-26.09412]]}},{"type":"Feature","properties":{"id":"way/164082083","name":"Gautrain","network":"Gautrain"},"geometry":{"type":"LineString","coordinates":[[28.15264,-26.09412],[28.1481,-26.09146]]}},{"type":"Feature","properties":{"id":"way/164088826","name":"Gautrain","network":"Gautrain"},"geometry":{"type":"LineString","coordinates":[[28.12308,-26.03638],[28.12292,-26.03668],[28.12281,-26.03686],[28.12263,-26.03721],[28.12244,-26.03756],[28.12227,-26.03787],[28.1221,-26.03819],[28.12182,-26.03871],[28.12164,-26.0391],[28.12138,-26.03967],[28.12123,-26.0401],[28.121,-26.04068],[28.12082,-26.04126],[28.12069,-26.04173],[28.12057,-26.04221],[28.12046,-26.04272],[28.1204,-26.04295],[28.12035,-26.04326],[28.12029,-26.0437],[28.12024,-26.04418],[28.12019,-26.04466],[28.12017,-26.04511],[28.12016,-26.04581],[28.12017,-26.0462],[28.12018,-26.04655],[28.12023,-26.04721],[28.1203,-26.04782],[28.12038,-26.04851],[28.12045,-26.04918],[28.12052,-26.04987],[28.12061,-26.05055],[28.12072,-26.05164],[28.12081,-26.05243],[28.12087,-26.05325]]}},{"type":"Feature","properties":{"id":"way/164088828","name":"Gautrain","network":"Gautrain"},"geometry":{"type":"LineString","coordinates":[[28.18004,-25.81801],[28.18008,-25.81946],[28.18014,-25.82042],[28.18023,-25.82121],[28.1803,-25.82167]]}},{"type":"Feature","properties":{"id":"way/164088829","name":"Gautrain","network":"Gautrain"},"geometry":{"type":"LineString","coordinates":[[28.11979,-26.05887],[28.11957,-26.05944]]}},{"type":"Feature","properties":{"id":"way/164088830","name":"Gautrain","network":"Gautrain"},"geometry":{"type":"LineString","coordinates":[[28.12348,-26.03563],[28.12308,-26.03638]]}},{"type":"Feature","properties":{"id":"way/164088832","name":"Gautrain","network":"Gautrain"},"geometry":{"type":"LineString","coordinates":[[28.18002,-25.81764],[28.18004,-25.81801]]}},{"type":"Feature","properties":{"id":"way/164088836","name":"Gautrain","network":"Gautrain"},"geometry":{"type":"LineString","coordinates":[[28.13262,-25.98758],[28.13271,-25.98847]]}},{"type":"Feature","properties":{"id":"way/164088838","name":"Gautrain","network":"Gautrain"},"geometry":{"type":"LineString","coordinates":[[28.17988,-25.8118],[28.1799,-25.81211]]}},{"type":"Feature","properties":{"id":"way/164088839","name":"Gautrain","network":"Gautrain"},"geometry":{"type":"LineString","coordinates":[[28.18934,-25.78447],[28.18925,-25.78471]]}},{"type":"Feature","properties":{"id":"way/164088840","name":"Gautrain","network":"Gautrain"},"geometry":{"type":"LineString","coordinates":[[28.19301,-25.76986],[28.193,-25.7701]]}},{"type":"Feature","properties":{"id":"way/164088847","name":"Gautrain","network":"Gautrain"},"geometry":{"type":"LineString","coordinates":[[28.18951,-25.78399],[28.18942,-25.78423]]}},{"type":"Feature","properties":{"id":"way/164088849","name":"Gautrain","network":"Gautrain"},"geometry":{"type":"LineString","coordinates":[[28.13374,-25.98178],[28.13357,-25.98233]]}},{"type":"Feature","properties":{"id":"way/164088851","name":"Gautrain","network":"Gautrain"},"geometry":{"type":"LineString","coordinates":[[28.12087,-26.05325],[28.12088,-26.05366]]}},{"type":"Feature","properties":{"id":"way/164088853","name":"Gautrain","network":"Gautrain"},"geometry":{"type":"LineString","coordinates":[[28.14891,-25.93191],[28.14878,-25.93232]]}},{"type":"Feature","properties":{"id":"way/164088858","name":"Gautrain","network":"Gautrain"},"geometry":{"type":"LineString","coordinates":[[28.18992,-25.78278],[28.18951,-25.78399]]}},{"type":"Feature","properties":{"id":"way/164088859","name":"Gautrain","network":"Gautrain"},"geometry":{"type":"LineString","coordinates":[[28.18942,-25.78423],[28.18934,-25.78447]]}},{"type":"Feature","properties":{"id":"way/164088861","name":"Gautrain","network":"Gautrain"},"geometry":{"type":"LineString","coordinates":[[28.13753,-26.00078],[28.1376,-26.00143],[28.13764,-26.00198],[28.13763,-26.00242],[28.1376,-26.00302],[28.13757,-26.00342],[28.13747,-26.00399],[28.13741,-26.00428],[28.13736,-26.00454],[28.13718,-26.0051],[28.13697,-26.00569],[28.13676,-26.00621],[28.1364,-26.00689],[28.13571,-26.00812],[28.13538,-26.00872],[28.135,-26.00935],[28.1346,-26.00996],[28.13418,-26.01054],[28.13375,-26.0111],[28.13306,-26.01197],[28.13247,-26.0127],[28.13189,-26.01344],[28.13147,-26.01402],[28.13108,-26.01458],[28.13091,-26.01484],[28.13069,-26.0152],[28.13035,-26.01581],[28.13001,-26.01648],[28.12972,-26.01715],[28.12946,-26.01784],[28.12923,-26.01851],[28.12898,-26.01941],[28.12887,-26.01988],[28.12879,-26.02033],[28.1287,-26.02084],[28.12863,-26.02131],[28.12853,-26.022],[28.12843,-26.02269],[28.12835,-26.02331]]}},{"type":"Feature","properties":{"id":"way/164088864","name":"Gautrain","network":"Gautrain"},"geometry":{"type":"LineString","coordinates":[[28.11957,-26.05944],[28.11931,-26.06016],[28.11908,-26.06084],[28.1188,-26.06163],[28.11857,-26.06242],[28.1185,-26.06272],[28.11843,-26.06302],[28.11834,-26.06357],[28.11825,-26.06421],[28.1182,-26.06484],[28.11817,-26.06558],[28.11819,-26.06635],[28.11828,-26.06714],[28.11831,-26.0675],[28.11838,-26.06784],[28.11846,-26.06832],[28.11858,-26.06877],[28.11872,-26.06935],[28.11889,-26.06996],[28.1191,-26.07072],[28.11936,-26.07169],[28.1195,-26.07217],[28.11964,-26.07266],[28.11984,-26.07336],[28.12003,-26.07406],[28.1202,-26.07467],[28.12027,-26.07503],[28.12032,-26.07537],[28.12038,-26.07582],[28.12039,-26.07613],[28.12039,-26.07645],[28.12038,-26.07671],[28.12034,-26.07707],[28.12026,-26.0775],[28.1202,-26.07777],[28.12001,-26.07835],[28.11984,-26.07873],[28.11968,-26.07906],[28.11944,-26.07945],[28.11918,-26.07983],[28.11892,-26.08015],[28.11863,-26.08048]]}},{"type":"Feature","properties":{"id":"way/164088867","name":"Gautrain","network":"Gautrain"},"geometry":{"type":"LineString","coordinates":[[28.13707,-25.99916],[28.13721,-25.99959],[28.13734,-26.00002],[28.13753,-26.00078]]}},{"type":"Feature","properties":{"id":"way/164088869","name":"Gautrain","network":"Gautrain"},"geometry":{"type":"LineString","coordinates":[[28.1799,-25.81211],[28.17993,-25.81382],[28.17996,-25.81475],[28.17997,-25.81559],[28.18,-25.8166],[28.18002,-25.81764]]}},{"type":"Feature","properties":{"id":"way/164088871","name":"Gautrain","network":"Gautrain"},"geometry":{"type":"LineString","coordinates":[[28.12088,-26.05366],[28.12087,-26.05415],[28.12084,-26.05468],[28.12079,-26.05519],[28.12071,-26.05572]]}},{"type":"Feature","properties":{"id":"way/164088873","name":"Gautrain","network":"Gautrain"},"geometry":{"type":"LineString","coordinates":[[28.14878,-25.93232],[28.14824,-25.93386],[28.14797,-25.93463],[28.14772,-25.93536],[28.14709,-25.93721],[28.14675,-25.93813],[28.14643,-25.93906],[28.14561,-25.94136],[28.14519,-25.94252],[28.14476,-25.9437],[28.14393,-25.94599],[28.14352,-25.94713],[28.14312,-25.94821]]}},{"type":"Feature","properties":{"id":"way/164088875","name":"Gautrain","network":"Gautrain"},"geometry":{"type":"LineString","coordinates":[[28.193,-25.7701],[28.193,-25.77081],[28.19303,-25.77184],[28.19305,-25.77238],[28.19305,-25.77265],[28.19305,-25.77287],[28.19304,-25.77308],[28.19303,-25.77318],[28.19302,-25.77334],[28.193,-25.77356],[28.19298,-25.77376],[28.19294,-25.774],[28.1929,-25.77424],[28.19285,-25.77448],[28.1928,-25.77472]]}},{"type":"Feature","properties":{"id":"way/164088877","name":"Gautrain","network":"Gautrain"},"geometry":{"type":"LineString","coordinates":[[28.13357,-25.98233],[28.13326,-25.98327],[28.13301,-25.98422],[28.13286,-25.98481],[28.13275,-25.98539],[28.13268,-25.98593],[28.13263,-25.98646],[28.13261,-25.98709],[28.13262,-25.98758]]}},{"type":"Feature","properties":{"id":"way/164088879","name":"Gautrain","network":"Gautrain"},"geometry":{"type":"LineString","coordinates":[[28.13271,-25.98847],[28.13273,-25.98874],[28.13279,-25.98914],[28.13285,-25.98951],[28.13298,-25.99012],[28.13316,-25.99072],[28.1334,-25.99141],[28.13367,-25.9921],[28.13397,-25.9928],[28.13429,-25.99349],[28.13468,-25.99427],[28.135,-25.99491]]}},{"type":"Feature","properties":{"id":"way/164090371","name":"Gautrain","network":"Gautrain"},"geometry":{"type":"LineString","coordinates":[[28.18022,-26.10346],[28.17984,-26.10323]]}},{"type":"Feature","properties":{"id":"way/164090375","name":"Gautrain","network":"Gautrain"},"geometry":{"type":"LineString","coordinates":[[28.17984,-26.10323],[28.17931,-26.10295],[28.17908,-26.10282]]}},{"type":"Feature","properties":{"id":"way/165511776","name":"Gautrain","network":"Gautrain"},"geometry":{"type":"LineString","coordinates":[[28.1803,-25.82167],[28.18039,-25.82223]]}},{"type":"Feature","properties":{"id":"way/165511778","name":"Gautrain","network":"Gautrain"},"geometry":{"type":"LineString","coordinates":[[28.18039,-25.82223],[28.18052,-25.82289],[28.18069,-25.82353],[28.18087,-25.82417],[28.18105,-25.82473],[28.18125,-25.82527],[28.18143,-25.8258],[28.18161,-25.82631],[28.18203,-25.82748],[28.18242,-25.82856],[28.1826,-25.82911],[28.18274,-25.82965],[28.18286,-25.8301],[28.18296,-25.83056],[28.1831,-25.83143],[28.18334,-25.83298],[28.18356,-25.83453]]}},{"type":"Feature","properties":{"id":"way/171578132","name":"Gautrain","network":"Gautrain"},"geometry":{"type":"LineString","coordinates":[[28.07152,-26.101],[28.07829,-26.09839],[28.08017,-26.09769],[28.08126,-26.09727],[28.08199,-26.09688],[28.0825,-26.09653],[28.08326,-26.09586],[28.08549,-26.09359],[28.08642,-26.09276],[28.08727,-26.09215],[28.08797,-26.09171],[28.08885,-26.09122],[28.08973,-26.09081],[28.09055,-26.09049],[28.09132,-26.09023],[28.09498,-26.08913],[28.09567,-26.0889],[28.09618,-26.08871],[28.0971,-26.08831],[28.09794,-26.08792],[28.09876,-26.0875],[28.09962,-26.08703]]}},{"type":"Feature","properties":{"id":"way/194557912","name":"Gautrain","network":"Gautrain"},"geometry":{"type":"LineString","coordinates":[[28.19298,-25.76283],[28.1931,-25.76299],[28.19318,-25.76311],[28.19326,-25.76325],[28.19335,-25.76341],[28.19339,-25.76351],[28.19345,-25.7637],[28.19349,-25.76392],[28.19353,-25.76416],[28.19353,-25.76452],[28.19344,-25.76529],[28.19335,-25.76615]]}},{"type":"Feature","properties":{"id":"way/242293592","name":"Unnamed","network":"Gautrain"},"geometry":{"type":"LineString","coordinates":[[28.11917,-26.04399],[28.11918,-26.04372],[28.1192,-26.0435],[28.11928,-26.04299]]}},{"type":"Feature","properties":{"id":"way/242293593","name":"Unnamed","network":"Gautrain"},"geometry":{"type":"LineString","coordinates":[[28.11972,-26.04617],[28.11967,-26.04599],[28.11963,-26.04581],[28.11959,-26.0456],[28.11957,-26.04548],[28.11955,-26.04535],[28.11955,-26.04523],[28.11954,-26.04515],[28.11955,-26.04488],[28.11955,-26.04474],[28.11956,-26.04453],[28.11957,-26.04427],[28.11958,-26.04409],[28.11961,-26.04379],[28.11964,-26.04355],[28.11971,-26.04309],[28.11977,-26.0427],[28.11981,-26.04249],[28.11986,-26.04217],[28.11991,-26.04188],[28.11998,-26.04156],[28.11999,-26.04152],[28.12005,-26.04125],[28.12012,-26.041],[28.12018,-26.04078],[28.12025,-26.04052],[28.12032,-26.04031],[28.12041,-26.04009],[28.12055,-26.03983],[28.12075,-26.03954]]}},{"type":"Feature","properties":{"id":"way/242293594","name":"Unnamed","network":"Gautrain"},"geometry":{"type":"LineString","coordinates":[[28.1206,-26.03959],[28.12049,-26.03973],[28.12039,-26.03985],[28.12026,-26.04],[28.12019,-26.04009],[28.12004,-26.0403],[28.11997,-26.04041],[28.11988,-26.04055],[28.1198,-26.04074],[28.11973,-26.04092],[28.11968,-26.0411],[28.11964,-26.04131],[28.11952,-26.04204],[28.11936,-26.043],[28.11928,-26.04351],[28.11925,-26.04368],[28.11922,-26.04386],[28.1192,-26.04403],[28.11919,-26.04431]]}},{"type":"Feature","properties":{"id":"way/242293595","name":"Unnamed","network":"Gautrain"},"geometry":{"type":"LineString","coordinates":[[28.12117,-26.03892],[28.12099,-26.03913],[28.12083,-26.03932],[28.12076,-26.0394],[28.12057,-26.03969],[28.12042,-26.03992],[28.12032,-26.04009],[28.12023,-26.0403],[28.12016,-26.04053],[28.12006,-26.04083],[28.11996,-26.04124],[28.11982,-26.04187],[28.11968,-26.04269],[28.11961,-26.04306],[28.11959,-26.04325],[28.11955,-26.04355],[28.11951,-26.04381],[28.11949,-26.04408],[28.11946,-26.04446],[28.11945,-26.04502],[28.11945,-26.04518],[28.11945,-26.04524],[28.11947,-26.04534],[28.11948,-26.04543],[28.1195,-26.04549],[28.11956,-26.04574]]}},{"type":"Feature","properties":{"id":"way/242293596","name":"Unnamed","network":"Gautrain"},"geometry":{"type":"LineString","coordinates":[[28.11951,-26.04569],[28.11945,-26.04547],[28.11942,-26.04533],[28.1194,-26.04519],[28.1194,-26.04503],[28.1194,-26.04481],[28.11943,-26.04437],[28.11947,-26.04385],[28.1195,-26.04354],[28.11954,-26.04321],[28.11962,-26.04269],[28.11969,-26.04226],[28.11977,-26.04186],[28.11991,-26.04123],[28.12002,-26.04082],[28.12012,-26.04047],[28.12018,-26.04028],[28.12029,-26.04006],[28.1204,-26.03988],[28.1206,-26.03959],[28.12083,-26.03932]]}},{"type":"Feature","properties":{"id":"way/242293597","name":"Unnamed","network":"Gautrain"},"geometry":{"type":"LineString","coordinates":[[28.11974,-26.04073],[28.11964,-26.04094],[28.11957,-26.04108],[28.11952,-26.04123],[28.11947,-26.04137],[28.11943,-26.04158],[28.11936,-26.04202],[28.1192,-26.04298],[28.11916,-26.04324],[28.11914,-26.04339],[28.11914,-26.0435],[28.11915,-26.0437],[28.11917,-26.04399],[28.11917,-26.04404],[28.11918,-26.04416],[28.11919,-26.04431],[28.1192,-26.04441],[28.11922,-26.04462]]}},{"type":"Feature","properties":{"id":"way/242668439","name":"Gautrain","network":"Gautrain"},"geometry":{"type":"LineString","coordinates":[[28.21397,-25.76006],[28.21334,-25.7603],[28.21271,-25.76054],[28.21223,-25.76072],[28.21199,-25.76078],[28.2118,-25.7608],[28.21143,-25.76083],[28.21092,-25.76081],[28.20907,-25.76057],[28.20718,-25.76032],[28.20524,-25.76006],[28.20376,-25.75985],[28.20326,-25.75979],[28.20296,-25.75977],[28.20275,-25.75976],[28.20258,-25.75976],[28.20241,-25.75977],[28.20222,-25.75979],[28.20206,-25.75982],[28.20188,-25.75986],[28.20172,-25.7599],[28.20159,-25.75994],[28.20142,-25.76001],[28.20131,-25.76006],[28.20119,-25.76011],[28.2011,-25.76017],[28.20096,-25.76025],[28.20078,-25.76036],[28.2005,-25.76057],[28.20023,-25.76079],[28.1999,-25.76105]]}},{"type":"Feature","properties":{"id":"way/242668440","name":"Gautrain","network":"Gautrain"},"geometry":{"type":"LineString","coordinates":[[28.21511,-25.75982],[28.2149,-25.75982],[28.2147,-25.75984],[28.21434,-25.75993],[28.21397,-25.76006]]}},{"type":"Feature","properties":{"id":"way/258987060","name":"Unnamed","network":"Gautrain"},"geometry":{"type":"LineString","coordinates":[[28.11964,-26.04603],[28.11956,-26.04577],[28.11956,-26.04574],[28.11952,-26.04551],[28.11951,-26.04536],[28.1195,-26.04523],[28.11949,-26.0451],[28.11949,-26.04491],[28.1195,-26.04467],[28.11951,-26.04433],[28.11953,-26.04407],[28.11956,-26.04381],[28.11959,-26.04355],[28.11963,-26.04334],[28.11966,-26.04307],[28.11972,-26.0427],[28.11976,-26.0425],[28.11986,-26.04188],[28.12,-26.04126],[28.1201,-26.04085],[28.1202,-26.04053],[28.12026,-26.04036],[28.1203,-26.04025],[28.12036,-26.0401],[28.12043,-26.03995],[28.12057,-26.03969]]}},{"type":"Feature","properties":{"id":"way/258987061","name":"Unnamed","network":"Gautrain"},"geometry":{"type":"LineString","coordinates":[[28.12045,-26.04959],[28.12041,-26.04926],[28.12033,-26.04888],[28.12028,-26.04865],[28.12022,-26.04834],[28.12019,-26.0482],[28.12016,-26.04791],[28.12012,-26.04751],[28.12011,-26.0474],[28.12008,-26.04726],[28.12004,-26.04713],[28.11999,-26.04697],[28.11987,-26.04666],[28.11983,-26.04654],[28.11981,-26.0465],[28.11967,-26.04613],[28.11964,-26.04603],[28.11951,-26.04569],[28.11937,-26.04531],[28.11934,-26.04521],[28.11932,-26.04511],[28.11929,-26.04497],[28.11927,-26.0448],[28.11926,-26.04459],[28.11925,-26.04441]]}},{"type":"Feature","properties":{"id":"way/258987063","name":"Gautrain","network":"Gautrain"},"geometry":{"type":"LineString","coordinates":[[28.11981,-26.0465],[28.11974,-26.04624],[28.11972,-26.04617],[28.11969,-26.04598],[28.11967,-26.04579],[28.11965,-26.04563],[28.11964,-26.04555],[28.11964,-26.04546],[28.11966,-26.0449],[28.11966,-26.04471],[28.11967,-26.04455],[28.11969,-26.04424],[28.11972,-26.04386],[28.11976,-26.04356],[28.1198,-26.04325],[28.11983,-26.04306],[28.11989,-26.04267],[28.11994,-26.04239],[28.12001,-26.0419],[28.12006,-26.04162],[28.12011,-26.04138],[28.12014,-26.04125],[28.12021,-26.04096],[28.12025,-26.04078],[28.12032,-26.04057],[28.12038,-26.04037],[28.12041,-26.04027],[28.12048,-26.04006],[28.12059,-26.03983],[28.12066,-26.03969],[28.12075,-26.03954],[28.12087,-26.03937],[28.12101,-26.03914],[28.1211,-26.03901],[28.12117,-26.03892],[28.12124,-26.03882],[28.12151,-26.03851],[28.12179,-26.03818],[28.122,-26.03793],[28.12213,-26.03774],[28.12221,-26.03762],[28.12228,-26.03751],[28.12239,-26.0373],[28.12245,-26.03718],[28.12273,-26.03667],[28.1229,-26.03634]]}},{"type":"Feature","properties":{"id":"way/258987064","name":"Unnamed","network":"Gautrain"},"geometry":{"type":"LineString","coordinates":[[28.11999,-26.04697],[28.11989,-26.04677],[28.11985,-26.04667],[28.11976,-26.04652],[28.11956,-26.04612],[28.11948,-26.04596],[28.11941,-26.0458],[28.11929,-26.04546],[28.11924,-26.04533],[28.1192,-26.0452],[28.11916,-26.04499],[28.1191,-26.04472],[28.11899,-26.04409],[28.11897,-26.04393]]}},{"type":"Feature","properties":{"id":"way/258987065","name":"Unnamed","network":"Gautrain"},"geometry":{"type":"LineString","coordinates":[[28.11976,-26.04652],[28.11966,-26.04626],[28.11954,-26.04595],[28.11944,-26.04567],[28.11932,-26.04535],[28.11929,-26.04524],[28.11925,-26.04511],[28.11922,-26.0449],[28.11917,-26.04468],[28.1191,-26.04427],[28.11904,-26.04393],[28.11902,-26.0438],[28.11901,-26.04367],[28.11901,-26.04358],[28.11902,-26.0435],[28.11903,-26.04341],[28.11907,-26.04319],[28.11911,-26.04296]]}},{"type":"Feature","properties":{"id":"way/277922785","name":"Gautrain","network":"Gautrain"},"geometry":{"type":"LineString","coordinates":[[28.22459,-26.12727],[28.22462,-26.12732],[28.22502,-26.12803],[28.2253,-26.12852],[28.22538,-26.12867],[28.22557,-26.12901],[28.22575,-26.12935],[28.22608,-26.12993],[28.2263,-26.13032],[28.22645,-26.13054],[28.22658,-26.1307],[28.22678,-26.1309],[28.22697,-26.13105],[28.22709,-26.13113],[28.22722,-26.1312],[28.22735,-26.13127],[28.22746,-26.13132],[28.22761,-26.13138],[28.22782,-26.13144],[28.22812,-26.13151],[28.22929,-26.13176],[28.22951,-26.13181],[28.23093,-26.13212],[28.23123,-26.13218]]}},{"type":"Feature","properties":{"id":"way/410897251","name":"Gautrain","network":"Gautrain"},"geometry":{"type":"LineString","coordinates":[[28.11829,-26.0808],[28.11795,-26.08108]]}},{"type":"Feature","properties":{"id":"way/410897252","name":"Gautrain","network":"Gautrain"},"geometry":{"type":"LineString","coordinates":[[28.11863,-26.08048],[28.11829,-26.0808]]}},{"type":"Feature","properties":{"id":"way/427825937","name":"Gautrain","network":"Gautrain"},"geometry":{"type":"LineString","coordinates":[[28.16128,-25.90866],[28.161,-25.90966],[28.16085,-25.91018],[28.16072,-25.91073],[28.16046,-25.91145],[28.16017,-25.91223],[28.1599,-25.9129],[28.15963,-25.91353],[28.15895,-25.91483],[28.15851,-25.91564],[28.15807,-25.91637],[28.15712,-25.9179],[28.1562,-25.91941],[28.15518,-25.921],[28.15452,-25.92203],[28.15365,-25.92337],[28.15216,-25.92568]]}},{"type":"Feature","properties":{"id":"way/427825938","name":"Gautrain","network":"Gautrain"},"geometry":{"type":"LineString","coordinates":[[28.1622,-25.90523],[28.16189,-25.9064]]}},{"type":"Feature","properties":{"id":"way/536994744","name":"Gautrain","network":"Gautrain"},"geometry":{"type":"LineString","coordinates":[[28.15802,-26.09684],[28.15698,-26.09634],[28.15586,-26.0958],[28.1552,-26.09548],[28.15454,-26.09516],[28.15396,-26.09486],[28.15339,-26.09454],[28.15315,-26.09442]]}},{"type":"Feature","properties":{"id":"way/536994745","name":"Gautrain","network":"Gautrain"},"geometry":{"type":"LineString","coordinates":[[28.15862,-26.09712],[28.15802,-26.09684]]}},{"type":"Feature","properties":{"id":"way/537266054","name":"Gautrain","network":"Gautrain"},"geometry":{"type":"LineString","coordinates":[[28.19281,-25.76243],[28.1931,-25.76276]]}},{"type":"Feature","properties":{"id":"way/537266055","name":"Gautrain","network":"Gautrain"},"geometry":{"type":"LineString","coordinates":[[28.19101,-25.76034],[28.19129,-25.76067],[28.19136,-25.76074],[28.19144,-25.76084],[28.1916,-25.76101],[28.19185,-25.7613]]}},{"type":"Feature","properties":{"id":"way/537266056","name":"Gautrain","network":"Gautrain"},"geometry":{"type":"LineString","coordinates":[[28.19185,-25.7613],[28.19212,-25.76165],[28.19228,-25.76185]]}},{"type":"Feature","properties":{"id":"way/537266825","name":"Gautrain","network":"Gautrain"},"geometry":{"type":"LineString","coordinates":[[28.19228,-25.76185],[28.19274,-25.76252]]}},{"type":"Feature","properties":{"id":"way/537266827","name":"Gautrain","network":"Gautrain"},"geometry":{"type":"LineString","coordinates":[[28.19305,-25.7628],[28.19321,-25.76297],[28.19333,-25.76308],[28.19349,-25.76324],[28.19362,-25.76335],[28.19372,-25.76343],[28.19387,-25.76353],[28.19402,-25.76362],[28.19421,-25.76371],[28.19437,-25.76378],[28.19453,-25.76384],[28.19467,-25.76389],[28.19488,-25.76392],[28.19503,-25.76394],[28.19517,-25.76395],[28.1953,-25.76395],[28.19547,-25.76395],[28.19564,-25.76393],[28.19585,-25.76391],[28.19602,-25.76387],[28.19624,-25.7638],[28.19648,-25.76371],[28.19661,-25.76365],[28.19676,-25.76356],[28.19697,-25.76343]]}},{"type":"Feature","properties":{"id":"way/537267722","name":"Gautrain","network":"Gautrain"},"geometry":{"type":"LineString","coordinates":[[28.19993,-25.76108],[28.20026,-25.76082],[28.20051,-25.76062],[28.20079,-25.76041],[28.20096,-25.7603],[28.20105,-25.76024],[28.2012,-25.76015],[28.20135,-25.76008],[28.2015,-25.76002],[28.20167,-25.75996],[28.20183,-25.75991],[28.20197,-25.75988],[28.20214,-25.75984],[28.20227,-25.75983],[28.20241,-25.75981],[28.20257,-25.7598],[28.20275,-25.7598],[28.20296,-25.75981],[28.20325,-25.75983],[28.20376,-25.7599],[28.20524,-25.7601],[28.20718,-25.76036],[28.20908,-25.76061],[28.21092,-25.76085],[28.21145,-25.76086],[28.21181,-25.76084],[28.21202,-25.76081],[28.21225,-25.76075],[28.21272,-25.76058],[28.21336,-25.76033],[28.21398,-25.7601]]}},{"type":"Feature","properties":{"id":"way/537268862","name":"Gautrain","network":"Gautrain"},"geometry":{"type":"LineString","coordinates":[[28.19296,-25.77009],[28.19295,-25.77082],[28.19301,-25.77239],[28.19301,-25.77263],[28.19301,-25.77286],[28.193,-25.77309],[28.19298,-25.77332],[28.19297,-25.77349],[28.19293,-25.77377],[28.19292,-25.77393],[28.19287,-25.7742],[28.19283,-25.77442],[28.19276,-25.77472]]}},{"type":"Feature","properties":{"id":"way/537268864","name":"Gautrain","network":"Gautrain"},"geometry":{"type":"LineString","coordinates":[[28.19263,-25.76231],[28.19281,-25.76254],[28.19301,-25.76281]]}},{"type":"Feature","properties":{"id":"way/537274084","name":"Gautrain","network":"Gautrain"},"geometry":{"type":"LineString","coordinates":[[28.23185,-25.74987],[28.23257,-25.74963],[28.23399,-25.74917],[28.2342,-25.74911],[28.23485,-25.74888],[28.23548,-25.74864],[28.23598,-25.74847],[28.23648,-25.7483],[28.23708,-25.7481]]}},{"type":"Feature","properties":{"id":"way/537274776","name":"Gautrain","network":"Gautrain"},"geometry":{"type":"LineString","coordinates":[[28.22477,-25.75575],[28.22541,-25.75502],[28.22561,-25.75482],[28.22645,-25.75389],[28.22661,-25.75372],[28.22711,-25.75318],[28.22734,-25.75292],[28.22831,-25.75185],[28.22863,-25.7515],[28.22896,-25.75121],[28.22937,-25.75089],[28.22975,-25.75066],[28.22998,-25.75055],[28.23021,-25.75045],[28.2306,-25.75029],[28.23185,-25.74987]]}},{"type":"Feature","properties":{"id":"way/537276025","name":"Gautrain","network":"Gautrain"},"geometry":{"type":"LineString","coordinates":[[28.21513,-25.75985],[28.21543,-25.75986],[28.21633,-25.75999],[28.21731,-25.7601],[28.218,-25.7602],[28.21866,-25.76026],[28.21905,-25.76025],[28.21948,-25.76018]]}},{"type":"Feature","properties":{"id":"way/537276026","name":"Gautrain","network":"Gautrain"},"geometry":{"type":"LineString","coordinates":[[28.21398,-25.7601],[28.21436,-25.75996],[28.21471,-25.75988],[28.21491,-25.75985],[28.21513,-25.75985]]}},{"type":"Feature","properties":{"id":"way/537276027","name":"Gautrain","network":"Gautrain"},"geometry":{"type":"LineString","coordinates":[[28.21999,-25.76007],[28.22017,-25.76001]]}},{"type":"Feature","properties":{"id":"way/537276028","name":"Gautrain","network":"Gautrain"},"geometry":{"type":"LineString","coordinates":[[28.21962,-25.76015],[28.21976,-25.76013],[28.21999,-25.76007]]}},{"type":"Feature","properties":{"id":"way/537276029","name":"Gautrain","network":"Gautrain"},"geometry":{"type":"LineString","coordinates":[[28.21948,-25.76018],[28.21962,-25.76015]]}},{"type":"Feature","properties":{"id":"way/537276030","name":"Gautrain","network":"Gautrain"},"geometry":{"type":"LineString","coordinates":[[28.22444,-25.7561],[28.22477,-25.75575]]}},{"type":"Feature","properties":{"id":"way/537276031","name":"Gautrain","network":"Gautrain"},"geometry":{"type":"LineString","coordinates":[[28.22017,-25.76001],[28.22056,-25.75987],[28.22088,-25.75971],[28.22114,-25.75955],[28.22142,-25.75936],[28.22179,-25.75902],[28.22215,-25.75865],[28.22444,-25.7561]]}},{"type":"Feature","properties":{"id":"way/539423297","name":"Gautrain","network":"Gautrain"},"geometry":{"type":"LineString","coordinates":[[28.19297,-25.76986],[28.19296,-25.77009]]}},{"type":"Feature","properties":{"id":"way/539423298","name":"Gautrain","network":"Gautrain"},"geometry":{"type":"LineString","coordinates":[[28.19335,-25.76615],[28.19333,-25.76633],[28.19322,-25.76731],[28.19314,-25.76794],[28.19307,-25.7686],[28.193,-25.76939],[28.19297,-25.76986]]}},{"type":"Feature","properties":{"id":"way/539423299","name":"Gautrain","network":"Gautrain"},"geometry":{"type":"LineString","coordinates":[[28.19205,-25.7769],[28.19141,-25.77875],[28.19079,-25.78035]]}},{"type":"Feature","properties":{"id":"way/539423300","name":"Gautrain","network":"Gautrain"},"geometry":{"type":"LineString","coordinates":[[28.19276,-25.77472],[28.19205,-25.7769]]}},{"type":"Feature","properties":{"id":"way/539425914","name":"Gautrain","network":"Gautrain"},"geometry":{"type":"LineString","coordinates":[[28.18922,-25.78468],[28.1891,-25.78502],[28.18899,-25.78532],[28.1889,-25.78556],[28.18874,-25.78592],[28.18836,-25.78668],[28.18816,-25.78705],[28.18794,-25.7874],[28.18772,-25.78771],[28.18744,-25.78811],[28.18713,-25.7885],[28.18655,-25.78913],[28.18626,-25.78942],[28.18582,-25.78982],[28.1851,-25.79042],[28.18492,-25.79057],[28.18478,-25.79068],[28.1845,-25.79088],[28.18395,-25.79132],[28.18344,-25.79172],[28.18298,-25.79211],[28.18276,-25.79232],[28.18235,-25.79274],[28.18214,-25.79296],[28.18193,-25.79321],[28.18161,-25.7936],[28.18135,-25.79396],[28.18108,-25.79436],[28.18092,-25.79462],[28.18068,-25.79506],[28.18046,-25.7955],[28.18025,-25.79596],[28.18006,-25.79645],[28.17991,-25.79693],[28.17982,-25.79725],[28.17975,-25.79754],[28.17964,-25.79818],[28.17956,-25.79896],[28.17955,-25.79914]]}},{"type":"Feature","properties":{"id":"way/539425915","name":"Gautrain","network":"Gautrain"},"geometry":{"type":"LineString","coordinates":[[28.18931,-25.78443],[28.18922,-25.78468]]}},{"type":"Feature","properties":{"id":"way/539425916","name":"Gautrain","network":"Gautrain"},"geometry":{"type":"LineString","coordinates":[[28.18939,-25.7842],[28.18931,-25.78443]]}},{"type":"Feature","properties":{"id":"way/539425917","name":"Gautrain","network":"Gautrain"},"geometry":{"type":"LineString","coordinates":[[28.18948,-25.78397],[28.18939,-25.7842]]}},{"type":"Feature","properties":{"id":"way/539425918","name":"Gautrain","network":"Gautrain"},"geometry":{"type":"LineString","coordinates":[[28.18989,-25.78278],[28.18948,-25.78397]]}},{"type":"Feature","properties":{"id":"way/539425919","name":"Gautrain","network":"Gautrain"},"geometry":{"type":"LineString","coordinates":[[28.19032,-25.78157],[28.18989,-25.78278]]}},{"type":"Feature","properties":{"id":"way/539429407","name":"Gautrain","network":"Gautrain"},"geometry":{"type":"LineString","coordinates":[[28.17957,-25.79948],[28.1796,-25.79914]]}},{"type":"Feature","properties":{"id":"way/539429408","name":"Gautrain","network":"Gautrain"},"geometry":{"type":"LineString","coordinates":[[28.17957,-25.79948],[28.17957,-25.79971],[28.17957,-25.80005],[28.17962,-25.80189],[28.17964,-25.80272],[28.17968,-25.80434],[28.17972,-25.80549],[28.17973,-25.80606],[28.17975,-25.80705],[28.17978,-25.80805],[28.1798,-25.80919]]}},{"type":"Feature","properties":{"id":"way/539430416","name":"Gautrain","network":"Gautrain"},"geometry":{"type":"LineString","coordinates":[[28.17982,-25.80979],[28.17988,-25.8118]]}},{"type":"Feature","properties":{"id":"way/539430417","name":"Gautrain","network":"Gautrain"},"geometry":{"type":"LineString","coordinates":[[28.1798,-25.80919],[28.17982,-25.80979]]}},{"type":"Feature","properties":{"id":"way/539434570","name":"Gautrain","network":"Gautrain"},"geometry":{"type":"LineString","coordinates":[[28.18,-25.81801],[28.18004,-25.81947],[28.1801,-25.82042],[28.18018,-25.82122],[28.18025,-25.82167]]}},{"type":"Feature","properties":{"id":"way/539434571","name":"Gautrain","network":"Gautrain"},"geometry":{"type":"LineString","coordinates":[[28.17999,-25.81763],[28.18,-25.81801]]}},{"type":"Feature","properties":{"id":"way/539434572","name":"Gautrain","network":"Gautrain"},"geometry":{"type":"LineString","coordinates":[[28.17978,-25.80979],[28.17984,-25.8118]]}},{"type":"Feature","properties":{"id":"way/539434573","name":"Gautrain","network":"Gautrain"},"geometry":{"type":"LineString","coordinates":[[28.17978,-25.80979],[28.17975,-25.8092]]}},{"type":"Feature","properties":{"id":"way/539434574","name":"Gautrain","network":"Gautrain"},"geometry":{"type":"LineString","coordinates":[[28.17986,-25.81211],[28.1799,-25.81382],[28.17991,-25.81476],[28.17993,-25.8156],[28.17995,-25.8166],[28.17999,-25.81763]]}},{"type":"Feature","properties":{"id":"way/539434575","name":"Gautrain","network":"Gautrain"},"geometry":{"type":"LineString","coordinates":[[28.17984,-25.8118],[28.17986,-25.81211]]}},{"type":"Feature","properties":{"id":"way/539434576","name":"Gautrain","network":"Gautrain"},"geometry":{"type":"LineString","coordinates":[[28.17954,-25.79947],[28.17953,-25.79971],[28.17953,-25.80008],[28.17957,-25.80189],[28.17959,-25.80272],[28.17964,-25.80434],[28.17967,-25.8055],[28.17969,-25.80606],[28.17971,-25.80705],[28.17974,-25.80806],[28.17975,-25.8092]]}},{"type":"Feature","properties":{"id":"way/539434577","name":"Gautrain","network":"Gautrain"},"geometry":{"type":"LineString","coordinates":[[28.17955,-25.79914],[28.17954,-25.79947]]}},{"type":"Feature","properties":{"id":"way/539437986","name":"Gautrain","network":"Gautrain"},"geometry":{"type":"LineString","coordinates":[[28.1876,-25.86977],[28.18696,-25.87009],[28.18546,-25.87078],[28.18396,-25.8715],[28.1825,-25.8722],[28.18172,-25.87257],[28.18101,-25.87289],[28.18019,-25.87327],[28.17938,-25.87363],[28.17852,-25.87402],[28.17767,-25.87439],[28.17682,-25.87478],[28.17586,-25.87523],[28.17557,-25.87538],[28.1753,-25.87553],[28.17479,-25.87583],[28.17416,-25.87623],[28.17381,-25.87645],[28.17349,-25.87669],[28.17296,-25.87708],[28.17247,-25.87749],[28.17204,-25.87786],[28.17156,-25.87833],[28.17121,-25.87867],[28.17083,-25.87908],[28.17018,-25.87987],[28.16986,-25.88028],[28.16961,-25.88065],[28.16932,-25.8811],[28.16907,-25.88151],[28.16862,-25.88235],[28.1684,-25.88279],[28.1682,-25.88326],[28.16796,-25.88385],[28.16775,-25.88451],[28.16742,-25.88565],[28.16708,-25.88689],[28.16675,-25.88811],[28.16643,-25.88936],[28.16629,-25.88988],[28.16617,-25.89028],[28.16589,-25.89139],[28.16558,-25.89247],[28.1654,-25.89314],[28.16521,-25.89386],[28.16483,-25.89524],[28.16463,-25.89596],[28.16446,-25.89665],[28.16426,-25.89737],[28.16407,-25.89805],[28.16343,-25.90045],[28.1632,-25.9014],[28.16298,-25.90215],[28.16277,-25.90294],[28.16255,-25.90372],[28.16215,-25.90522]]}},{"type":"Feature","properties":{"id":"way/539437987","name":"Gautrain","network":"Gautrain"},"geometry":{"type":"LineString","coordinates":[[28.18352,-25.83453],[28.1837,-25.8357],[28.18394,-25.83747],[28.18413,-25.83876],[28.18433,-25.84006],[28.18479,-25.84296],[28.18494,-25.84367],[28.18506,-25.84414],[28.1852,-25.84464],[28.18538,-25.84516],[28.18555,-25.84562],[28.18572,-25.84602],[28.18611,-25.84683],[28.18647,-25.8475],[28.1869,-25.84818],[28.18725,-25.84868],[28.18889,-25.85089],[28.18912,-25.85121]]}},{"type":"Feature","properties":{"id":"way/539437988","name":"Gautrain","network":"Gautrain"},"geometry":{"type":"LineString","coordinates":[[28.18034,-25.82224],[28.18048,-25.8229],[28.18065,-25.82354],[28.18083,-25.82418],[28.18101,-25.82475],[28.1812,-25.82529],[28.18139,-25.82581],[28.18157,-25.82632],[28.18198,-25.82748],[28.18237,-25.82857],[28.18255,-25.82912],[28.1827,-25.82966],[28.18281,-25.83011],[28.18291,-25.83057],[28.18306,-25.83144],[28.1833,-25.83299],[28.18352,-25.83453]]}},{"type":"Feature","properties":{"id":"way/539437989","name":"Gautrain","network":"Gautrain"},"geometry":{"type":"LineString","coordinates":[[28.18025,-25.82167],[28.18034,-25.82224]]}},{"type":"Feature","properties":{"id":"way/539451991","name":"Gautrain","network":"Gautrain"},"geometry":{"type":"LineString","coordinates":[[28.1614,-25.90822],[28.16128,-25.90866]]}},{"type":"Feature","properties":{"id":"way/539451992","name":"Gautrain","network":"Gautrain"},"geometry":{"type":"LineString","coordinates":[[28.16189,-25.9064],[28.16164,-25.90736],[28.1614,-25.90822]]}},{"type":"Feature","properties":{"id":"way/539466737","name":"Gautrain","network":"Gautrain"},"geometry":{"type":"LineString","coordinates":[[28.14873,-25.93231],[28.14821,-25.93385],[28.14793,-25.93462],[28.14767,-25.93535],[28.14704,-25.93721],[28.14638,-25.93905],[28.14558,-25.94134],[28.14515,-25.94251],[28.14472,-25.94369],[28.1439,-25.94598],[28.14348,-25.94711],[28.14309,-25.9482]]}},{"type":"Feature","properties":{"id":"way/539466738","name":"Gautrain","network":"Gautrain"},"geometry":{"type":"LineString","coordinates":[[28.14974,-25.9297],[28.14931,-25.9307]]}},{"type":"Feature","properties":{"id":"way/539466739","name":"Gautrain","network":"Gautrain"},"geometry":{"type":"LineString","coordinates":[[28.15189,-25.92603],[28.1506,-25.92808],[28.15025,-25.92866],[28.14998,-25.92918],[28.14974,-25.9297]]}},{"type":"Feature","properties":{"id":"way/539466740","name":"Gautrain","network":"Gautrain"},"geometry":{"type":"LineString","coordinates":[[28.15213,-25.92566],[28.15189,-25.92603]]}},{"type":"Feature","properties":{"id":"way/539466741","name":"Gautrain","network":"Gautrain"},"geometry":{"type":"LineString","coordinates":[[28.16125,-25.90866],[28.16096,-25.90966],[28.1608,-25.9102],[28.16066,-25.91072],[28.16042,-25.91147],[28.16014,-25.91222],[28.15987,-25.91288],[28.15958,-25.91352],[28.15891,-25.91483],[28.15847,-25.91563],[28.15802,-25.91637],[28.15709,-25.91788],[28.15616,-25.91939],[28.15514,-25.92099],[28.15448,-25.92202],[28.15361,-25.92336],[28.15213,-25.92566]]}},{"type":"Feature","properties":{"id":"way/539466742","name":"Gautrain","network":"Gautrain"},"geometry":{"type":"LineString","coordinates":[[28.16136,-25.90822],[28.16125,-25.90866]]}},{"type":"Feature","properties":{"id":"way/539466743","name":"Gautrain","network":"Gautrain"},"geometry":{"type":"LineString","coordinates":[[28.16184,-25.9064],[28.16159,-25.90734],[28.16136,-25.90822]]}},{"type":"Feature","properties":{"id":"way/539466744","name":"Gautrain","network":"Gautrain"},"geometry":{"type":"LineString","coordinates":[[28.16215,-25.90522],[28.16184,-25.9064]]}},{"type":"Feature","properties":{"id":"way/539486448","name":"Gautrain","network":"Gautrain"},"geometry":{"type":"LineString","coordinates":[[28.12589,-26.03119],[28.12569,-26.03153],[28.12559,-26.03167],[28.12547,-26.03188],[28.12535,-26.0321],[28.12511,-26.03255],[28.12493,-26.03288],[28.1246,-26.03349],[28.1245,-26.03368],[28.1243,-26.03405],[28.1242,-26.03423],[28.12414,-26.03434],[28.12408,-26.03448],[28.12401,-26.03463],[28.12386,-26.03493]]}},{"type":"Feature","properties":{"id":"way/539487973","name":"Gautrain","network":"Gautrain"},"geometry":{"type":"LineString","coordinates":[[28.12301,-26.03636],[28.12337,-26.03568]]}},{"type":"Feature","properties":{"id":"way/539487974","name":"Gautrain","network":"Gautrain"},"geometry":{"type":"LineString","coordinates":[[28.12337,-26.03568],[28.1235,-26.03544],[28.12368,-26.03512],[28.12376,-26.03496],[28.12398,-26.03456],[28.12402,-26.03447],[28.12406,-26.03441],[28.12408,-26.03437],[28.12429,-26.03397],[28.1244,-26.03378],[28.12448,-26.03363],[28.12466,-26.03331],[28.12489,-26.03287],[28.12515,-26.0324],[28.12525,-26.03222],[28.12538,-26.03196],[28.12565,-26.03149],[28.12591,-26.03102],[28.12628,-26.03037],[28.1265,-26.02996],[28.12675,-26.02947],[28.12689,-26.02909]]}},{"type":"Feature","properties":{"id":"way/539487975","name":"Gautrain","network":"Gautrain"},"geometry":{"type":"LineString","coordinates":[[28.12083,-26.05325],[28.12077,-26.05244],[28.1206,-26.05086],[28.12056,-26.05056],[28.12048,-26.04987],[28.12045,-26.04959],[28.12041,-26.04917],[28.12034,-26.04853],[28.12026,-26.04781],[28.12019,-26.04722],[28.12014,-26.04656],[28.12013,-26.04621],[28.12013,-26.04581],[28.12013,-26.04512],[28.12015,-26.04466],[28.12019,-26.04418],[28.12025,-26.04369],[28.12032,-26.04325],[28.12041,-26.04272],[28.12052,-26.04221],[28.12065,-26.04173],[28.12078,-26.04126],[28.12096,-26.04068],[28.12118,-26.04008],[28.12134,-26.03967],[28.12161,-26.03908],[28.12179,-26.0387],[28.12205,-26.03818],[28.12222,-26.03786],[28.12239,-26.03755],[28.12257,-26.03719],[28.12275,-26.03685],[28.12287,-26.03663],[28.12301,-26.03636]]}},{"type":"Feature","properties":{"id":"way/539487977","name":"Gautrain","network":"Gautrain"},"geometry":{"type":"LineString","coordinates":[[28.12408,-26.03437],[28.1245,-26.03368]]}},{"type":"Feature","properties":{"id":"way/539490339","name":"Gautrain","network":"Gautrain"},"geometry":{"type":"LineString","coordinates":[[28.13496,-25.99492],[28.13465,-25.99428],[28.13427,-25.9935],[28.13395,-25.99281],[28.13363,-25.9921],[28.13337,-25.99142],[28.13313,-25.99073],[28.13296,-25.99012],[28.13282,-25.98951],[28.13275,-25.98914],[28.1327,-25.98874],[28.13267,-25.98847]]}},{"type":"Feature","properties":{"id":"way/539490340","name":"Gautrain","network":"Gautrain"},"geometry":{"type":"LineString","coordinates":[[28.13525,-25.99551],[28.13496,-25.99492]]}},{"type":"Feature","properties":{"id":"way/539490341","name":"Gautrain","network":"Gautrain"},"geometry":{"type":"LineString","coordinates":[[28.13703,-25.99917],[28.13681,-25.99866],[28.13631,-25.9976],[28.13577,-25.99655],[28.13553,-25.99605],[28.13525,-25.99551]]}},{"type":"Feature","properties":{"id":"way/539490342","name":"Gautrain","network":"Gautrain"},"geometry":{"type":"LineString","coordinates":[[28.13749,-26.00079],[28.13731,-26.00002],[28.13718,-25.9996],[28.13703,-25.99917]]}},{"type":"Feature","properties":{"id":"way/539490343","name":"Gautrain","network":"Gautrain"},"geometry":{"type":"LineString","coordinates":[[28.1283,-26.02332],[28.1284,-26.02268],[28.1285,-26.022],[28.1286,-26.0213],[28.12874,-26.02033],[28.12882,-26.01987],[28.12893,-26.01941],[28.12919,-26.01851],[28.12942,-26.01782],[28.12968,-26.01713],[28.12998,-26.01646],[28.13031,-26.01581],[28.13066,-26.01518],[28.13088,-26.01482],[28.13104,-26.01456],[28.13144,-26.014],[28.13186,-26.01343],[28.13243,-26.01268],[28.13302,-26.01195],[28.13372,-26.01107],[28.13415,-26.01052],[28.13456,-26.00995],[28.13497,-26.00933],[28.13534,-26.00871],[28.13567,-26.00811],[28.13636,-26.00689],[28.13672,-26.0062],[28.13693,-26.00569],[28.13714,-26.0051],[28.13732,-26.00453],[28.13743,-26.00399],[28.13752,-26.00341],[28.13756,-26.00301],[28.13759,-26.00241],[28.1376,-26.00198],[28.13757,-26.00143],[28.13749,-26.00079]]}},{"type":"Feature","properties":{"id":"way/539490344","name":"Gautrain","network":"Gautrain"},"geometry":{"type":"LineString","coordinates":[[28.12689,-26.02909],[28.12705,-26.02874],[28.12719,-26.02839],[28.12738,-26.02787],[28.12753,-26.02737],[28.12766,-26.02692],[28.12775,-26.02656],[28.12791,-26.02587],[28.128,-26.02529],[28.12817,-26.02433],[28.1283,-26.02332]]}},{"type":"Feature","properties":{"id":"way/539493012","name":"Gautrain","network":"Gautrain"},"geometry":{"type":"LineString","coordinates":[[28.12326,-26.03568],[28.12334,-26.03555],[28.12345,-26.03539],[28.12364,-26.03509],[28.12377,-26.0349],[28.12398,-26.03456]]}},{"type":"Feature","properties":{"id":"way/539493013","name":"Gautrain","network":"Gautrain"},"geometry":{"type":"LineString","coordinates":[[28.1229,-26.03634],[28.12308,-26.036],[28.12326,-26.03568]]}},{"type":"Feature","properties":{"id":"way/539493014","name":"Gautrain","network":"Gautrain"},"geometry":{"type":"LineString","coordinates":[[28.14888,-25.9319],[28.14873,-25.93231]]}},{"type":"Feature","properties":{"id":"way/539493015","name":"Gautrain","network":"Gautrain"},"geometry":{"type":"LineString","coordinates":[[28.14931,-25.9307],[28.14907,-25.93137],[28.14888,-25.9319]]}},{"type":"Feature","properties":{"id":"way/539493016","name":"Gautrain","network":"Gautrain"},"geometry":{"type":"LineString","coordinates":[[28.14297,-25.94855],[28.14309,-25.9482]]}},{"type":"Feature","properties":{"id":"way/539493017","name":"Gautrain","network":"Gautrain"},"geometry":{"type":"LineString","coordinates":[[28.14241,-25.95041],[28.14266,-25.94952],[28.14297,-25.94855]]}},{"type":"Feature","properties":{"id":"way/539493018","name":"Gautrain","network":"Gautrain"},"geometry":{"type":"LineString","coordinates":[[28.1408,-25.95707],[28.14128,-25.95499],[28.14153,-25.95388],[28.14172,-25.95319],[28.142,-25.9521],[28.14241,-25.95041]]}},{"type":"Feature","properties":{"id":"way/539493019","name":"Gautrain","network":"Gautrain"},"geometry":{"type":"LineString","coordinates":[[28.13369,-25.98176],[28.13402,-25.9807],[28.13429,-25.97979],[28.13456,-25.97886],[28.13515,-25.97699],[28.13628,-25.97338],[28.13736,-25.96988],[28.13843,-25.96643],[28.139,-25.96437],[28.13928,-25.96338],[28.13956,-25.96233],[28.14018,-25.95973],[28.1408,-25.95707]]}},{"type":"Feature","properties":{"id":"way/539493020","name":"Gautrain","network":"Gautrain"},"geometry":{"type":"LineString","coordinates":[[28.13352,-25.98231],[28.13369,-25.98176]]}},{"type":"Feature","properties":{"id":"way/539493021","name":"Gautrain","network":"Gautrain"},"geometry":{"type":"LineString","coordinates":[[28.13352,-25.98231],[28.13321,-25.98326],[28.13296,-25.98421],[28.13282,-25.98481],[28.13271,-25.98538],[28.13264,-25.98592],[28.13259,-25.98645],[28.13258,-25.98708],[28.13259,-25.98758]]}},{"type":"Feature","properties":{"id":"way/539493022","name":"Gautrain","network":"Gautrain"},"geometry":{"type":"LineString","coordinates":[[28.13267,-25.98847],[28.13259,-25.98758]]}},{"type":"Feature","properties":{"id":"way/539515648","name":"Gautrain","network":"Gautrain"},"geometry":{"type":"LineString","coordinates":[[28.04156,-26.19566],[28.04164,-26.19553],[28.04296,-26.19361],[28.04307,-26.19342],[28.04316,-26.19321],[28.04325,-26.19292],[28.04412,-26.19011],[28.0442,-26.18987],[28.0443,-26.18962],[28.04866,-26.18198],[28.04976,-26.17995],[28.04998,-26.17955],[28.05017,-26.17906],[28.0503,-26.1786],[28.05036,-26.17814],[28.05038,-26.17757],[28.05036,-26.17703],[28.0503,-26.17646],[28.05023,-26.17596],[28.04527,-26.15071],[28.04424,-26.14551],[28.04371,-26.14286],[28.04358,-26.14194],[28.04357,-26.14188],[28.04349,-26.14122],[28.04346,-26.14061],[28.04347,-26.14006],[28.04354,-26.1396],[28.0437,-26.13893],[28.04385,-26.13832],[28.04627,-26.12748],[28.0463,-26.12731],[28.0466,-26.12137],[28.04664,-26.12077],[28.0467,-26.12026],[28.04677,-26.11974],[28.04687,-26.11914],[28.04708,-26.1183],[28.04734,-26.11753],[28.04763,-26.11694],[28.04804,-26.11623],[28.04855,-26.11553],[28.04896,-26.11506],[28.04933,-26.11465],[28.04988,-26.114],[28.05054,-26.11335],[28.05142,-26.11259],[28.05229,-26.1118],[28.05345,-26.11088],[28.0546,-26.11006],[28.05725,-26.1081]]}},{"type":"Feature","properties":{"id":"way/539515649","name":"Gautrain","network":"Gautrain"},"geometry":{"type":"LineString","coordinates":[[28.09965,-26.08707],[28.09989,-26.08696]]}},{"type":"Feature","properties":{"id":"way/539515650","name":"Gautrain","network":"Gautrain"},"geometry":{"type":"LineString","coordinates":[[28.09962,-26.08703],[28.09985,-26.08688]]}},{"type":"Feature","properties":{"id":"way/539517703","name":"Gautrain","network":"Gautrain"},"geometry":{"type":"LineString","coordinates":[[28.1037,-26.08503],[28.10394,-26.08495],[28.10417,-26.08489]]}},{"type":"Feature","properties":{"id":"way/539517704","name":"Gautrain","network":"Gautrain"},"geometry":{"type":"LineString","coordinates":[[28.1059,-26.08454],[28.10674,-26.08437],[28.10759,-26.0842]]}},{"type":"Feature","properties":{"id":"way/539517705","name":"Gautrain","network":"Gautrain"},"geometry":{"type":"LineString","coordinates":[[28.10418,-26.08493],[28.10461,-26.08481]]}},{"type":"Feature","properties":{"id":"way/539517706","name":"Gautrain","network":"Gautrain"},"geometry":{"type":"LineString","coordinates":[[28.10588,-26.0845],[28.10673,-26.08434],[28.10691,-26.0843],[28.10758,-26.08417]]}},{"type":"Feature","properties":{"id":"way/539517707","name":"Gautrain","network":"Gautrain"},"geometry":{"type":"LineString","coordinates":[[28.1046,-26.08478],[28.10588,-26.0845]]}},{"type":"Feature","properties":{"id":"way/539517708","name":"Gautrain","network":"Gautrain"},"geometry":{"type":"LineString","coordinates":[[28.10417,-26.08489],[28.1046,-26.08478]]}},{"type":"Feature","properties":{"id":"way/539517709","name":"Gautrain","network":"Gautrain"},"geometry":{"type":"LineString","coordinates":[[28.10758,-26.08417],[28.10919,-26.08384],[28.10998,-26.08367]]}},{"type":"Feature","properties":{"id":"way/539517710","name":"Gautrain","network":"Gautrain"},"geometry":{"type":"LineString","coordinates":[[28.09986,-26.0869],[28.10057,-26.08649],[28.10104,-26.08623],[28.10147,-26.086],[28.1022,-26.08562],[28.10265,-26.08542],[28.10308,-26.08525],[28.1037,-26.08503]]}},{"type":"Feature","properties":{"id":"way/539517711","name":"Gautrain","network":"Gautrain"},"geometry":{"type":"LineString","coordinates":[[28.11826,-26.08077],[28.1186,-26.08045]]}},{"type":"Feature","properties":{"id":"way/539517712","name":"Gautrain","network":"Gautrain"},"geometry":{"type":"LineString","coordinates":[[28.11792,-26.08105],[28.11826,-26.08077]]}},{"type":"Feature","properties":{"id":"way/539517713","name":"Gautrain","network":"Gautrain"},"geometry":{"type":"LineString","coordinates":[[28.11321,-26.08288],[28.11336,-26.08284],[28.11452,-26.08253],[28.11587,-26.08211],[28.11656,-26.08186],[28.11701,-26.08165],[28.11733,-26.08146],[28.1177,-26.08121],[28.11792,-26.08105]]}},{"type":"Feature","properties":{"id":"way/539517714","name":"Gautrain","network":"Gautrain"},"geometry":{"type":"LineString","coordinates":[[28.10998,-26.08367],[28.11204,-26.08317],[28.11321,-26.08288]]}},{"type":"Feature","properties":{"id":"way/539517715","name":"Gautrain","network":"Gautrain"},"geometry":{"type":"LineString","coordinates":[[28.11954,-26.05943],[28.11975,-26.05887]]}},{"type":"Feature","properties":{"id":"way/539517716","name":"Gautrain","network":"Gautrain"},"geometry":{"type":"LineString","coordinates":[[28.1186,-26.08045],[28.11889,-26.08013],[28.11915,-26.07981],[28.11941,-26.07943],[28.11964,-26.07904],[28.1198,-26.07872],[28.11996,-26.07835],[28.12016,-26.07776],[28.12021,-26.0775],[28.12029,-26.07707],[28.12034,-26.0767],[28.12035,-26.07645],[28.12035,-26.07614],[28.12034,-26.07582],[28.12028,-26.07537],[28.12024,-26.07504],[28.12016,-26.07469],[28.11999,-26.07407],[28.11981,-26.07337],[28.1196,-26.07267],[28.11947,-26.07219],[28.11932,-26.07171],[28.11907,-26.07073],[28.11886,-26.06997],[28.11869,-26.06936],[28.11854,-26.06878],[28.11844,-26.06832],[28.11834,-26.06784],[28.11829,-26.06751],[28.11825,-26.06714],[28.11816,-26.06635],[28.11813,-26.06559],[28.11816,-26.06484],[28.1182,-26.06421],[28.11829,-26.06358],[28.11839,-26.06302],[28.11846,-26.06272],[28.11853,-26.06241],[28.11876,-26.06163],[28.11904,-26.06084],[28.11927,-26.06016],[28.11954,-26.05943]]}},{"type":"Feature","properties":{"id":"way/539517717","name":"Gautrain","network":"Gautrain"},"geometry":{"type":"LineString","coordinates":[[28.12023,-26.05746],[28.12048,-26.05651],[28.12067,-26.05572]]}},{"type":"Feature","properties":{"id":"way/539517718","name":"Gautrain","network":"Gautrain"},"geometry":{"type":"LineString","coordinates":[[28.11975,-26.05887],[28.11998,-26.0582],[28.12023,-26.05746]]}},{"type":"Feature","properties":{"id":"way/539517719","name":"Gautrain","network":"Gautrain"},"geometry":{"type":"LineString","coordinates":[[28.12083,-26.05365],[28.12083,-26.05325]]}},{"type":"Feature","properties":{"id":"way/539517720","name":"Gautrain","network":"Gautrain"},"geometry":{"type":"LineString","coordinates":[[28.12067,-26.05572],[28.12073,-26.05534],[28.12076,-26.0551],[28.1208,-26.05468],[28.12083,-26.05414],[28.12083,-26.05365]]}},{"type":"Feature","properties":{"id":"way/539590988","name":"Gautrain","network":"Gautrain"},"geometry":{"type":"LineString","coordinates":[[28.10995,-26.08382],[28.10997,-26.08382],[28.11228,-26.08324],[28.1133,-26.083]]}},{"type":"Feature","properties":{"id":"way/539590989","name":"Gautrain","network":"Gautrain"},"geometry":{"type":"LineString","coordinates":[[28.10751,-26.08441],[28.10815,-26.08426],[28.1088,-26.08409],[28.10937,-26.08396],[28.10995,-26.08382]]}},{"type":"Feature","properties":{"id":"way/539620195","name":"Gautrain","network":"Gautrain"},"geometry":{"type":"LineString","coordinates":[[28.13899,-26.08613],[28.13813,-26.08562]]}},{"type":"Feature","properties":{"id":"way/539620196","name":"Gautrain","network":"Gautrain"},"geometry":{"type":"LineString","coordinates":[[28.14726,-26.09098],[28.1447,-26.08948],[28.14149,-26.0876],[28.14063,-26.08708],[28.1398,-26.0866],[28.13942,-26.08638],[28.13899,-26.08613]]}},{"type":"Feature","properties":{"id":"way/539640324","name":"Gautrain","network":"Gautrain"},"geometry":{"type":"LineString","coordinates":[[28.13902,-26.0861],[28.13945,-26.08635],[28.13983,-26.08658],[28.14066,-26.08705],[28.1415,-26.08757],[28.14224,-26.088],[28.14399,-26.08902],[28.14729,-26.09095]]}},{"type":"Feature","properties":{"id":"way/539640327","name":"Gautrain","network":"Gautrain"},"geometry":{"type":"LineString","coordinates":[[28.13816,-26.08559],[28.13902,-26.0861]]}},{"type":"Feature","properties":{"id":"way/539640329","name":"Gautrain","network":"Gautrain"},"geometry":{"type":"LineString","coordinates":[[28.11728,-26.08194],[28.11775,-26.08181],[28.11808,-26.08172],[28.11871,-26.08155],[28.11938,-26.08139],[28.1201,-26.08124],[28.12093,-26.0811],[28.12143,-26.08104],[28.12189,-26.08099],[28.12238,-26.08094],[28.12313,-26.08089],[28.12378,-26.08087],[28.1241,-26.08087],[28.12451,-26.08087],[28.12508,-26.08089],[28.12581,-26.08093],[28.12651,-26.081],[28.12731,-26.0811],[28.12818,-26.08125],[28.12901,-26.08141],[28.12957,-26.08155],[28.1301,-26.08169],[28.13106,-26.08199],[28.132,-26.08232],[28.13255,-26.08253],[28.13298,-26.0827],[28.13352,-26.08295],[28.13403,-26.08321],[28.13466,-26.08354],[28.13545,-26.084],[28.13601,-26.08432],[28.13651,-26.08463],[28.13732,-26.0851],[28.13816,-26.08559]]}},{"type":"Feature","properties":{"id":"way/539640333","name":"Gautrain","network":"Gautrain"},"geometry":{"type":"LineString","coordinates":[[28.1133,-26.083],[28.11339,-26.08298],[28.11456,-26.08267],[28.11589,-26.08233],[28.11728,-26.08194]]}},{"type":"Feature","properties":{"id":"way/539645355","name":"Gautrain","network":"Gautrain"},"geometry":{"type":"LineString","coordinates":[[28.16111,-26.09828],[28.16198,-26.0987],[28.16255,-26.09896],[28.1633,-26.09927],[28.16395,-26.09951],[28.16462,-26.09973],[28.16514,-26.09989],[28.16568,-26.10004],[28.16634,-26.10018],[28.16702,-26.10031],[28.16762,-26.10042],[28.16818,-26.10051],[28.16898,-26.10062],[28.16987,-26.10076],[28.1711,-26.10094]]}},{"type":"Feature","properties":{"id":"way/539645356","name":"Gautrain","network":"Gautrain"},"geometry":{"type":"LineString","coordinates":[[28.16069,-26.09808],[28.16111,-26.09828]]}},{"type":"Feature","properties":{"id":"way/539645357","name":"Gautrain","network":"Gautrain"},"geometry":{"type":"LineString","coordinates":[[28.15864,-26.09709],[28.16069,-26.09808]]}},{"type":"Feature","properties":{"id":"way/539645358","name":"Gautrain","network":"Gautrain"},"geometry":{"type":"LineString","coordinates":[[28.15804,-26.09681],[28.15864,-26.09709]]}},{"type":"Feature","properties":{"id":"way/539645359","name":"Gautrain","network":"Gautrain"},"geometry":{"type":"LineString","coordinates":[[28.15318,-26.0944],[28.1534,-26.09452],[28.154,-26.09483],[28.15456,-26.09513],[28.15522,-26.09546],[28.15588,-26.09577],[28.157,-26.09631],[28.15804,-26.09681]]}},{"type":"Feature","properties":{"id":"way/539645360","name":"Gautrain","network":"Gautrain"},"geometry":{"type":"LineString","coordinates":[[28.15267,-26.09409],[28.15318,-26.0944]]}},{"type":"Feature","properties":{"id":"way/539645361","name":"Gautrain","network":"Gautrain"},"geometry":{"type":"LineString","coordinates":[[28.14811,-26.09143],[28.15267,-26.09409]]}},{"type":"Feature","properties":{"id":"way/539645362","name":"Gautrain","network":"Gautrain"},"geometry":{"type":"LineString","coordinates":[[28.14729,-26.09095],[28.14811,-26.09143]]}},{"type":"Feature","properties":{"id":"way/539646025","name":"Gautrain","network":"Gautrain"},"geometry":{"type":"LineString","coordinates":[[28.18026,-26.10344],[28.18055,-26.10363],[28.18081,-26.10381],[28.18176,-26.10451],[28.18252,-26.10509],[28.18328,-26.10566],[28.18404,-26.10623],[28.1848,-26.1068],[28.18554,-26.10733],[28.1859,-26.10756],[28.18624,-26.10777],[28.18676,-26.10808],[28.18742,-26.10845],[28.1881,-26.1088],[28.18848,-26.109],[28.18877,-26.10915],[28.19145,-26.11053],[28.19285,-26.11122],[28.19416,-26.11191]]}},{"type":"Feature","properties":{"id":"way/539646026","name":"Gautrain","network":"Gautrain"},"geometry":{"type":"LineString","coordinates":[[28.17986,-26.1032],[28.18026,-26.10344]]}},{"type":"Feature","properties":{"id":"way/539646027","name":"Gautrain","network":"Gautrain"},"geometry":{"type":"LineString","coordinates":[[28.1791,-26.10279],[28.17935,-26.10292],[28.17986,-26.1032]]}},{"type":"Feature","properties":{"id":"way/539646028","name":"Gautrain","network":"Gautrain"},"geometry":{"type":"LineString","coordinates":[[28.17837,-26.10246],[28.17868,-26.10259],[28.1791,-26.10279]]}},{"type":"Feature","properties":{"id":"way/539646029","name":"Gautrain","network":"Gautrain"},"geometry":{"type":"LineString","coordinates":[[28.17717,-26.10202],[28.17749,-26.10212],[28.17783,-26.10225],[28.17837,-26.10246]]}},{"type":"Feature","properties":{"id":"way/539646030","name":"Gautrain","network":"Gautrain"},"geometry":{"type":"LineString","coordinates":[[28.17248,-26.10115],[28.17359,-26.10128],[28.17483,-26.10146],[28.17524,-26.10153],[28.17594,-26.10167],[28.17633,-26.10177],[28.17677,-26.10189],[28.17717,-26.10202]]}},{"type":"Feature","properties":{"id":"way/539646031","name":"Gautrain","network":"Gautrain"},"geometry":{"type":"LineString","coordinates":[[28.17168,-26.10103],[28.17248,-26.10115]]}},{"type":"Feature","properties":{"id":"way/539646032","name":"Gautrain","network":"Gautrain"},"geometry":{"type":"LineString","coordinates":[[28.1711,-26.10094],[28.17168,-26.10103]]}},{"type":"Feature","properties":{"id":"way/539649630","name":"Gautrain","network":"Gautrain"},"geometry":{"type":"LineString","coordinates":[[28.20001,-26.11477],[28.20124,-26.11539],[28.2016,-26.11558],[28.20428,-26.11698],[28.20684,-26.11833],[28.21094,-26.12046],[28.21354,-26.12182],[28.21554,-26.12284],[28.21638,-26.12325],[28.21694,-26.12348],[28.21739,-26.12364],[28.21794,-26.1238],[28.21856,-26.12396],[28.21922,-26.12412],[28.21991,-26.12428],[28.22045,-26.12441]]}},{"type":"Feature","properties":{"id":"way/539649631","name":"Gautrain","network":"Gautrain"},"geometry":{"type":"LineString","coordinates":[[28.19416,-26.11191],[28.19555,-26.11263],[28.19625,-26.11298],[28.19663,-26.11316],[28.197,-26.11334],[28.19777,-26.1137],[28.19853,-26.11406],[28.19915,-26.11435],[28.19953,-26.11453],[28.20001,-26.11477]]}},{"type":"Feature","properties":{"id":"way/688736651","name":"Gautrain","network":"Gautrain"},"geometry":{"type":"LineString","coordinates":[[28.19111,-25.76028],[28.19141,-25.76067],[28.19215,-25.76163],[28.19281,-25.76243]]}},{"type":"Feature","properties":{"id":"way/688736652","name":"Gautrain","network":"Gautrain"},"geometry":{"type":"LineString","coordinates":[[28.19101,-25.76034],[28.19134,-25.76077],[28.19141,-25.76086],[28.19159,-25.76108],[28.19192,-25.76148],[28.19207,-25.76166],[28.19222,-25.76185],[28.19245,-25.76214],[28.19274,-25.76252]]}},{"type":"Feature","properties":{"id":"way/722661547","name":"Gautrain","network":"Gautrain"},"geometry":{"type":"LineString","coordinates":[[28.23861,-25.74747],[28.23826,-25.74758],[28.23788,-25.74773],[28.23705,-25.74799]]}},{"type":"Feature","properties":{"id":"way/722661548","name":"Gautrain","network":"Gautrain"},"geometry":{"type":"LineString","coordinates":[[28.23865,-25.74758],[28.23889,-25.74749]]}},{"type":"Feature","properties":{"id":"way/722661549","name":"Gautrain","network":"Gautrain"},"geometry":{"type":"LineString","coordinates":[[28.23705,-25.74799],[28.23659,-25.74815],[28.23603,-25.74837],[28.23538,-25.74862],[28.23417,-25.74907],[28.23356,-25.74927],[28.23184,-25.74983],[28.23056,-25.75027],[28.23019,-25.75041],[28.22996,-25.75052],[28.22972,-25.75064],[28.22935,-25.75086],[28.22892,-25.7512],[28.2286,-25.75148],[28.22827,-25.75183],[28.2273,-25.7529],[28.2264,-25.75388],[28.22556,-25.75481],[28.22473,-25.75573]]}},{"type":"Feature","properties":{"id":"way/722661550","name":"Gautrain","network":"Gautrain"},"geometry":{"type":"LineString","coordinates":[[28.23708,-25.7481],[28.23792,-25.74783],[28.23865,-25.74758]]}},{"type":"Feature","properties":{"id":"way/744423347","name":"Gautrain","network":"Gautrain"},"geometry":{"type":"LineString","coordinates":[[28.18916,-25.85119],[28.18965,-25.85185],[28.19011,-25.85248]]}},{"type":"Feature","properties":{"id":"way/744423348","name":"Gautrain","network":"Gautrain"},"geometry":{"type":"LineString","coordinates":[[28.18912,-25.85121],[28.1896,-25.85187],[28.19006,-25.8525]]}},{"type":"Feature","properties":{"id":"way/744423349","name":"Gautrain","network":"Gautrain"},"geometry":{"type":"LineString","coordinates":[[28.19011,-25.85248],[28.19028,-25.85272],[28.19094,-25.8536],[28.1913,-25.85409],[28.19162,-25.85453],[28.19194,-25.85499],[28.19222,-25.85545],[28.1925,-25.85595],[28.19271,-25.85635],[28.19293,-25.85685],[28.19317,-25.85751],[28.19335,-25.85814],[28.19348,-25.85872],[28.19356,-25.85933],[28.19361,-25.85983],[28.19363,-25.86016],[28.19364,-25.8605],[28.19362,-25.86106],[28.1936,-25.86131],[28.19358,-25.86152],[28.19352,-25.86196],[28.19344,-25.86242],[28.19326,-25.86321],[28.19313,-25.86361],[28.193,-25.86398],[28.19278,-25.86448],[28.19264,-25.86478],[28.19239,-25.86525],[28.19209,-25.86576],[28.19185,-25.86613],[28.19165,-25.8664],[28.19146,-25.86664],[28.19096,-25.86722],[28.19075,-25.86747],[28.19039,-25.86782],[28.18978,-25.86837],[28.18948,-25.86861],[28.18891,-25.86902],[28.18845,-25.86933],[28.18816,-25.8695],[28.18762,-25.8698]]}},{"type":"Feature","properties":{"id":"way/744423350","name":"Gautrain","network":"Gautrain"},"geometry":{"type":"LineString","coordinates":[[28.19006,-25.8525],[28.19025,-25.85275],[28.19091,-25.85363],[28.19126,-25.85411],[28.19157,-25.85454],[28.19219,-25.85548],[28.19248,-25.85599],[28.19267,-25.85637],[28.19288,-25.85686],[28.19312,-25.85752],[28.1933,-25.85815],[28.19343,-25.85873],[28.19353,-25.85934],[28.19357,-25.85984],[28.19359,-25.86017],[28.1936,-25.86051],[28.19358,-25.86106],[28.19356,-25.86131],[28.19353,-25.86155],[28.19348,-25.86197],[28.19339,-25.86242],[28.1932,-25.86322],[28.19309,-25.86362],[28.19295,-25.86398],[28.19273,-25.86448],[28.19259,-25.86478],[28.19235,-25.86523],[28.19205,-25.86573],[28.19181,-25.8661],[28.19144,-25.8666],[28.19092,-25.8672],[28.19072,-25.86744],[28.19036,-25.8678],[28.18976,-25.86834],[28.18945,-25.86858],[28.18888,-25.869],[28.18841,-25.8693],[28.18813,-25.86947],[28.1876,-25.86977]]}},{"type":"Feature","properties":{"id":"way/746239490","name":"Gautrain","network":"Gautrain"},"geometry":{"type":"LineString","coordinates":[[28.19228,-25.76185],[28.19263,-25.76231]]}},{"type":"Feature","properties":{"id":"way/746239491","name":"Gautrain","network":"Gautrain"},"geometry":{"type":"LineString","coordinates":[[28.09962,-26.08703],[28.09986,-26.0869]]}},{"type":"Feature","properties":{"id":"way/746239492","name":"Gautrain","network":"Gautrain"},"geometry":{"type":"LineString","coordinates":[[28.19104,-25.76019],[28.19111,-25.76028]]}},{"type":"Feature","properties":{"id":"way/746242594","name":"Gautrain","network":"Gautrain"},"geometry":{"type":"LineString","coordinates":[[28.22045,-26.12441],[28.22137,-26.12461],[28.2223,-26.12484],[28.22261,-26.12494],[28.22286,-26.12506],[28.2231,-26.1252],[28.22333,-26.12537],[28.22353,-26.12555],[28.22368,-26.12573],[28.22389,-26.12603],[28.22413,-26.12645],[28.22459,-26.12727]]}},{"type":"Feature","properties":{"id":"way/746242595","name":"Gautrain","network":"Gautrain"},"geometry":{"type":"LineString","coordinates":[[28.09965,-26.08707],[28.09988,-26.08695]]}},{"type":"Feature","properties":{"id":"way/746242596","name":"Gautrain","network":"Gautrain"},"geometry":{"type":"LineString","coordinates":[[28.05725,-26.1081],[28.05865,-26.10712],[28.05944,-26.1066],[28.06019,-26.10617],[28.0618,-26.10526],[28.06369,-26.10423],[28.0645,-26.10385],[28.06512,-26.10356],[28.07154,-26.10104],[28.07832,-26.09846],[28.0802,-26.09775],[28.0813,-26.09733],[28.08203,-26.09693],[28.08255,-26.09657],[28.08331,-26.09591],[28.08556,-26.09363],[28.08647,-26.09282],[28.08731,-26.0922],[28.08801,-26.09175],[28.08889,-26.09127],[28.08975,-26.09087],[28.09058,-26.09055],[28.09135,-26.09028],[28.09501,-26.08918],[28.09569,-26.08895],[28.0962,-26.08876],[28.09712,-26.08836],[28.09797,-26.08796],[28.09879,-26.08755],[28.09965,-26.08707]]}},{"type":"Feature","properties":{"id":"way/754502372","name":"Gautrain","network":"Gautrain"},"geometry":{"type":"LineString","coordinates":[[28.18975,-25.7588],[28.19038,-25.75958],[28.19101,-25.76034]]}},{"type":"Feature","properties":{"id":"way/754502373","name":"Gautrain","network":"Gautrain"},"geometry":{"type":"LineString","coordinates":[[28.19111,-25.76028],[28.19142,-25.76073],[28.19153,-25.76089],[28.19185,-25.7613]]}},{"type":"Feature","properties":{"id":"way/818541697","name":"Gautrain","network":"Gautrain"},"geometry":{"type":"LineString","coordinates":[[28.19079,-25.78035],[28.19055,-25.78096],[28.19032,-25.78157]]}},{"type":"Feature","properties":{"id":"way/833000526","name":"Gautrain","network":"Gautrain"},"geometry":{"type":"LineString","coordinates":[[28.1447,-26.08948],[28.14435,-26.08926],[28.14399,-26.08902]]}},{"type":"Feature","properties":{"id":"way/833000527","name":"Gautrain","network":"Gautrain"},"geometry":{"type":"LineString","coordinates":[[28.14149,-26.0876],[28.14224,-26.088]]}},{"type":"Feature","properties":{"id":"way/833000537","name":"Unnamed","network":"Gautrain"},"geometry":{"type":"LineString","coordinates":[[28.11922,-26.04462],[28.11925,-26.04478],[28.11929,-26.04497]]}},{"type":"Feature","properties":{"id":"way/833000538","name":"Unnamed","network":"Gautrain"},"geometry":{"type":"LineString","coordinates":[[28.11936,-26.04352],[28.11933,-26.0437],[28.11929,-26.04392],[28.11928,-26.04403],[28.11926,-26.04415],[28.11925,-26.04426],[28.11925,-26.04441]]}},{"type":"Feature","properties":{"id":"way/833000539","name":"Unnamed","network":"Gautrain"},"geometry":{"type":"LineString","coordinates":[[28.11907,-26.04319],[28.11906,-26.04332],[28.11905,-26.0435],[28.11905,-26.04363],[28.11906,-26.04378],[28.11908,-26.04389],[28.11913,-26.04411],[28.11917,-26.04432],[28.11922,-26.04462]]}},{"type":"Feature","properties":{"id":"way/833000540","name":"Unnamed","network":"Gautrain"},"geometry":{"type":"LineString","coordinates":[[28.12019,-26.04009],[28.12,-26.04032],[28.11993,-26.0404],[28.11985,-26.04051],[28.11979,-26.04064],[28.11974,-26.04073],[28.11964,-26.04099],[28.1196,-26.04114],[28.11955,-26.04131],[28.11952,-26.04156],[28.11944,-26.04203],[28.11928,-26.04299]]}},{"type":"Feature","properties":{"id":"way/833000541","name":"Unnamed","network":"Gautrain"},"geometry":{"type":"LineString","coordinates":[[28.11936,-26.04352],[28.11944,-26.04301],[28.1196,-26.04205],[28.11966,-26.04165],[28.11971,-26.04136],[28.11976,-26.04109],[28.11979,-26.04095],[28.11983,-26.04082],[28.11989,-26.04068],[28.11994,-26.04056],[28.12001,-26.04043],[28.12008,-26.0403],[28.12018,-26.04016],[28.12028,-26.04],[28.12034,-26.03992],[28.12039,-26.03985]]}},{"type":"Feature","properties":{"id":"way/833000542","name":"Gautrain","network":"Gautrain"},"geometry":{"type":"LineString","coordinates":[[28.12072,-26.05164],[28.12067,-26.05131],[28.12064,-26.05117],[28.1206,-26.05086]]}},{"type":"Feature","properties":{"id":"way/833000543","name":"Unnamed","network":"Gautrain"},"geometry":{"type":"LineString","coordinates":[[28.12037,-26.04949],[28.12036,-26.04929],[28.12035,-26.04912],[28.12035,-26.04905],[28.12033,-26.04888]]}},{"type":"Feature","properties":{"id":"way/833000544","name":"Unnamed","network":"Gautrain"},"geometry":{"type":"LineString","coordinates":[[28.12008,-26.04803],[28.12024,-26.04871],[28.1203,-26.04902],[28.12033,-26.04918],[28.12037,-26.04949],[28.12039,-26.04966],[28.12041,-26.04997]]}},{"type":"Feature","properties":{"id":"way/833000626","name":"Gautrain","network":"Gautrain"},"geometry":{"type":"LineString","coordinates":[[28.21094,-26.12046],[28.21056,-26.12029],[28.21016,-26.1201]]}},{"type":"Feature","properties":{"id":"way/868619712","name":"Gautrain","network":"Gautrain"},"geometry":{"type":"LineString","coordinates":[[28.19938,-25.76147],[28.19905,-25.76173],[28.19855,-25.76214],[28.19827,-25.76236],[28.19799,-25.76258],[28.19727,-25.76316],[28.19694,-25.7634]]}},{"type":"Feature","properties":{"id":"way/868619713","name":"Gautrain","network":"Gautrain"},"geometry":{"type":"LineString","coordinates":[[28.1999,-25.76105],[28.19938,-25.76147]]}},{"type":"Feature","properties":{"id":"way/868619714","name":"Gautrain","network":"Gautrain"},"geometry":{"type":"LineString","coordinates":[[28.19935,-25.76155],[28.19993,-25.76108]]}},{"type":"Feature","properties":{"id":"way/868619715","name":"Gautrain","network":"Gautrain"},"geometry":{"type":"LineString","coordinates":[[28.19697,-25.76343],[28.19708,-25.76335],[28.1973,-25.76319],[28.19803,-25.76261],[28.19832,-25.76238],[28.19859,-25.76215],[28.19867,-25.76209],[28.19908,-25.76176],[28.19935,-25.76155]]}},{"type":"Feature","properties":{"id":"way/1086092323","name":"Unnamed","network":"Gautrain"},"geometry":{"type":"LineString","coordinates":[[28.10997,-26.08382],[28.11062,-26.08369]]}},{"type":"Feature","properties":{"id":"way/1086092324","name":"Unnamed","network":"Gautrain"},"geometry":{"type":"LineString","coordinates":[[28.11322,-26.08288],[28.11336,-26.08284]]}},{"type":"Feature","properties":{"id":"way/1086092325","name":"Unnamed","network":"Gautrain"},"geometry":{"type":"LineString","coordinates":[[28.1133,-26.08301],[28.11339,-26.08298]]}},{"type":"Feature","properties":{"id":"way/1086092326","name":"Unnamed","network":"Gautrain"},"geometry":{"type":"LineString","coordinates":[[28.11273,-26.08318],[28.1133,-26.08301]]}},{"type":"Feature","properties":{"id":"way/1086092327","name":"Unnamed","network":"Gautrain"},"geometry":{"type":"LineString","coordinates":[[28.11269,-26.08305],[28.11322,-26.08288]]}},{"type":"Feature","properties":{"id":"way/1086094081","name":"Unnamed","network":"Gautrain"},"geometry":{"type":"LineString","coordinates":[[28.2284,-26.13161],[28.22929,-26.13176]]}},{"type":"Feature","properties":{"id":"way/1086094082","name":"Unnamed","network":"Gautrain"},"geometry":{"type":"LineString","coordinates":[[28.2253,-26.12852],[28.22566,-26.12926]]}},{"type":"Feature","properties":{"id":"way/1086094083","name":"Unnamed","network":"Gautrain"},"geometry":{"type":"LineString","coordinates":[[28.10759,-26.0842],[28.10774,-26.08417]]}},{"type":"Feature","properties":{"id":"way/1086094084","name":"Unnamed","network":"Gautrain"},"geometry":{"type":"LineString","coordinates":[[28.10691,-26.0843],[28.10759,-26.0842]]}},{"type":"Feature","properties":{"id":"way/1133617128","name":"Unnamed","network":"Gautrain"},"geometry":{"type":"LineString","coordinates":[[28.23184,-25.74983],[28.23257,-25.74963]]}},{"type":"Feature","properties":{"id":"way/1435659590","name":"Gautrain","network":"Gautrain"},"geometry":{"type":"LineString","coordinates":[[28.19274,-25.76252],[28.19298,-25.76283]]}},{"type":"Feature","properties":{"id":"way/1435659591","name":"Gautrain","network":"Gautrain"},"geometry":{"type":"LineString","coordinates":[[28.19263,-25.76231],[28.19287,-25.76259],[28.19305,-25.7628]]}}]}