{
  "type": "FeatureCollection",
  "features": [
    {
      "type": "Feature",
      "properties": {
        "name": "Hector Pieterson Memorial & Museum",
        "category": "museum",
        "summary": "Commemorates the schoolchildren killed by police during the 16 June 1976 Soweto uprising, named for the first student shot on the day.",
        "metroId": "johannesburg"
      },
      "geometry": { "type": "Point", "coordinates": [27.9014, -26.2415] }
    },
    {
      "type": "Feature",
      "properties": {
        "name": "Regina Mundi Church",
        "category": "heritage-site",
        "summary": "Soweto's largest Catholic church, used as a refuge and meeting place during police crackdowns on anti-apartheid gatherings through the 1970s and 1980s.",
        "metroId": "johannesburg"
      },
      "geometry": { "type": "Point", "coordinates": [27.8963, -26.2603] }
    },
    {
      "type": "Feature",
      "properties": {
        "name": "Walter Sisulu Square of Dedication",
        "category": "memorial",
        "summary": "Site of the Congress of the People in Kliptown, where the Freedom Charter was adopted on 26 June 1955.",
        "metroId": "johannesburg"
      },
      "geometry": { "type": "Point", "coordinates": [27.9231, -26.2814] }
    },
    {
      "type": "Feature",
      "properties": {
        "name": "Constitution Hill",
        "category": "museum",
        "summary": "Former prison complex that held Mahatma Gandhi, Nelson Mandela, and Winnie Madikizela-Mandela among many others; now the seat of South Africa's Constitutional Court.",
        "metroId": "johannesburg"
      },
      "geometry": { "type": "Point", "coordinates": [28.0436, -26.1913] }
    },
    {
      "type": "Feature",
      "properties": {
        "name": "Liliesleaf Farm",
        "category": "museum",
        "summary": "Underground headquarters of the ANC and Umkhonto we Sizwe in the early 1960s; the July 1963 police raid here led directly to the Rivonia Trial.",
        "metroId": "johannesburg"
      },
      "geometry": { "type": "Point", "coordinates": [28.0577, -26.0396] }
    },
    {
      "type": "Feature",
      "properties": {
        "name": "Apartheid Museum",
        "category": "museum",
        "summary": "Museum tracing the rise and fall of apartheid through the twentieth century, opened in 2001 south of central Johannesburg.",
        "metroId": "johannesburg"
      },
      "geometry": { "type": "Point", "coordinates": [27.9853, -26.241] }
    },
    {
      "type": "Feature",
      "properties": {
        "name": "Freedom Park",
        "category": "memorial",
        "summary": "National heritage precinct and memorial in Pretoria honouring those who died in South Africa's conflicts, including the struggle against apartheid.",
        "metroId": "tshwane"
      },
      "geometry": { "type": "Point", "coordinates": [28.1874, -25.7423] }
    },
    {
      "type": "Feature",
      "properties": {
        "name": "Sharpeville Human Rights Precinct",
        "category": "memorial",
        "summary": "Memorial and precinct marking the 21 March 1960 Sharpeville massacre, where police killed 69 people at a protest against pass laws; the site of South Africa's 1996 constitutional signing.",
        "metroId": "emfuleni"
      },
      "geometry": { "type": "Point", "coordinates": [27.8716, -26.6874] }
    }
  ]
}
